{"type": "FeatureCollection", "features": [{"type": "Feature", "properties": {"name": "Poondi catchment", "level": "reservoir-catchment", "source": "WWF/HydroSHEDS/v1/Basins/hybas_12", "year": "derived", "shedId": "KOSAS", "feeds": "Kosasthalaiyar"}, "geometry": {"type": "Polygon", "coordinates": [[[79.77916821528194, 13.491665752056669], [79.7686224479462, 13.49223206180151], [79.75637769273786, 13.503598306137736], [79.74804365096317, 13.507767545096785], [79.7311213591188, 13.508900112581214], [79.72721070314219, 13.51193232422819], [79.71175546371002, 13.513069447261971], [79.70195442687891, 13.507767549307948], [79.68422947116862, 13.49098796398089], [79.6827668404501, 13.485289196518815], [79.66986672641406, 13.471501688153781], [79.65758635253228, 13.470266492084999], [79.6522086755075, 13.474431279126359], [79.64255474180489, 13.475706568718744], [79.64251901820506, 13.482484440478679], [79.64583217192937, 13.483331689290322], [79.64668384906393, 13.486649246990172], [79.65331452523324, 13.488352635078234], [79.66193394835969, 13.506122112260343], [79.66306657225515, 13.513247739349993], [79.65793864589112, 13.519865047528926], [79.64804384305289, 13.524431234701424], [79.63090749873686, 13.524645205672407], [79.62742500243247, 13.521184968284917], [79.59828475612812, 13.520480462798613], [79.58785941088591, 13.530879079917206], [79.58749818633387, 13.53333152409525], [79.56840875665722, 13.532979268249628], [79.56492625659718, 13.529519058337248], [79.56007469553886, 13.528814462857977], [79.55242289864961, 13.521184965729], [79.55000161921784, 13.520832737146076], [79.54914988980974, 13.517519552569105], [79.5420644133814, 13.515700316991381], [79.53806904902382, 13.510545594532678], [79.53657969428204, 13.504748700329207], [79.52721116785476, 13.49640129304483], [79.51887710950847, 13.492232052750824], [79.49779001668777, 13.491099400060232], [79.49241230220139, 13.48693458314988], [79.47695708023336, 13.488067255051567], [79.47157943003492, 13.492232060557457], [79.464458238124, 13.491099427534905], [79.46054308960902, 13.48806727265676], [79.44779012461746, 13.48693465197337], [79.4438750385861, 13.483902409282107], [79.43006513620807, 13.482671746931016], [79.42795155475403, 13.474431258437313], [79.4102890533919, 13.475568339984404], [79.40084912835378, 13.480018512338887], [79.40000193925523, 13.483331628936059], [79.39668431562772, 13.482484434378081], [79.39583262155602, 13.479166905872056], [79.39933753073117, 13.478266102250387], [79.40065740987447, 13.463461922314107], [79.40612423679724, 13.458900236740124], [79.41993411950249, 13.457673987374891], [79.42083479864232, 13.454164682852081], [79.43554541825672, 13.453598366587114], [79.43945605058906, 13.450566160479893], [79.44804424487488, 13.449433555721992], [79.45208423336628, 13.446303267327266], [79.4571943382253, 13.450263004051045], [79.45923660094084, 13.442312375554959], [79.47278781310716, 13.429733237774226], [79.48333360314712, 13.429166933937196], [79.48267365790028, 13.421733606676977], [79.47916874549719, 13.420832877699048], [79.47977078638614, 13.405185897425937], [79.48945593484734, 13.396401493448234], [79.49517250477892, 13.394934443519448], [79.49639876759113, 13.381124568566834], [79.49953346716747, 13.377084620267096], [79.49583244575396, 13.370832987048773], [79.49680008171642, 13.367060563074244], [79.50195479953665, 13.363065207904778], [79.50748406886431, 13.361647229901942], [79.50921866930508, 13.354873852599976], [79.51887710950847, 13.353598565056304], [79.52499946335078, 13.35000011724397], [79.52585107543632, 13.34668247250651], [79.52916866688201, 13.345835279238473], [79.53013629285665, 13.34206292047664], [79.53529101612956, 13.338067505144405], [79.54910083708798, 13.336836833692654], [79.55506715201938, 13.321493050033476], [79.56993377133365, 13.320173168399279], [79.5708345185201, 13.316668279004444], [79.57695689336016, 13.320266826647448], [79.58554511437133, 13.321399390159007], [79.58945575929363, 13.324431637502839], [79.61471208700625, 13.325568664261874], [79.62008531621804, 13.329733508361219], [79.62695674658832, 13.325568635925615], [79.63661072257909, 13.324293380409808], [79.63838543655334, 13.31737730738223], [79.64804384305289, 13.316097536154388], [79.65195452516565, 13.313065324801038], [79.66471195199361, 13.31193277777926], [79.67304604746148, 13.30776797950681], [79.68112144874222, 13.300566473897794], [79.69804378022131, 13.299433859928687], [79.7102884882616, 13.292232423458362], [79.72721070314219, 13.291099837758928], [79.73333306812344, 13.28750131396318], [79.74807933254219, 13.288027466986705], [79.75191865547579, 13.291135523098717], [79.75738549066412, 13.29242420825084], [79.76196941992102, 13.297752812300248], [79.76311095940015, 13.31156261680326], [79.76776628355039, 13.313011872204212], [79.77916821528194, 13.304165014713334], [79.78162071115203, 13.303808215014408], [79.7913148146729, 13.294091901105025], [79.79166700903086, 13.291666164800358], [79.80000106948056, 13.295835407065525], [79.81054242748492, 13.295264640091792], [79.81998234895916, 13.2908144375296], [79.82174812373438, 13.283934002050433], [79.86054232314567, 13.28276573167374], [79.87721043886108, 13.274431706999549], [79.88945514930604, 13.26306541540702], [79.896772506142, 13.261932850013519], [79.90907966087298, 13.271399546299307], [79.91445727445762, 13.267234674887758], [79.93970918845254, 13.266097632912285], [79.9436242864933, 13.263065428916637], [79.95221255478984, 13.261932822415137], [79.95612316602572, 13.258900644167017], [79.96471140065499, 13.257768032654235], [79.97157839260329, 13.253598743983636], [79.97820016225256, 13.258731229123013], [79.97916778986325, 13.262499150165375], [79.9833326136264, 13.262499186528974], [79.98806812840728, 13.273044887015223], [79.99526511924057, 13.281124767493479], [79.9967411020647, 13.286863705246208], [80.01471130340384, 13.288067663978703], [80.02279117080788, 13.295264649343856], [80.02831599254341, 13.296682578304983], [80.03038053468134, 13.304735753276086], [80.03554419091472, 13.303598703898437], [80.04092185500937, 13.299433870565693], [80.04502427945773, 13.301007955255884], [80.05506610527276, 13.324337916824522], [80.06887597473815, 13.325568708553567], [80.07279105520195, 13.328600815635017], [80.09387818004663, 13.329733464506168], [80.10734463448684, 13.342232310280295], [80.11209356416141, 13.340551230230131], [80.12026708426392, 13.331378843974766], [80.12204630077535, 13.324431631706421], [80.13137921363062, 13.325568638237838], [80.13528983391386, 13.328600888104024], [80.17916737468663, 13.329167140396578], [80.17916737468663, 13.333332005653133], [80.18333217438774, 13.333331931941785], [80.18276589616461, 13.339708495638991], [80.17815515677435, 13.345237778778008], [80.13945463934624, 13.3464015984958], [80.1272099267901, 13.353598606850275], [80.12168512672338, 13.355016553193815], [80.12083343497855, 13.358334173609421], [80.11424284818936, 13.358686452496949], [80.10659105684879, 13.366311493740193], [80.10174398797247, 13.367020438952817], [80.09202320617099, 13.376710125413352], [80.0916664233965, 13.379167100589832], [80.08001928858873, 13.37415054221301], [80.07834712454117, 13.36764473423568], [80.07406188576122, 13.366097400450096], [80.06471116348861, 13.37443147381526], [80.04757483965683, 13.37464549864645], [80.04409226457464, 13.371185229262796], [80.03924083248444, 13.37048071552765], [80.01909015976199, 13.350352361706948], [79.99828839119672, 13.349647822133552], [79.99409236997766, 13.353812573546033], [79.985785057362, 13.354521596662883], [79.97325944422074, 13.342018296895676], [79.95244885768972, 13.341313752340328], [79.94409249845755, 13.349647841829992], [79.92916790557109, 13.35000011851721], [79.92831620008764, 13.35331765149357], [79.91887626564942, 13.357767878447339], [79.90195398393975, 13.358900406840819], [79.89679924375513, 13.362895814228041], [79.89526536292766, 13.368875464042802], [79.88657010354075, 13.378462562343936], [79.87695624645916, 13.379733390957075], [79.8708339609821, 13.383331845133252], [79.8708339609821, 13.399999962728868], [79.85925367947189, 13.408918157340596], [79.85748335540079, 13.415816387735449], [79.85061187109933, 13.417577780783192], [79.84943470577457, 13.44387750265337], [79.84543933765335, 13.449032241053596], [79.83554462819504, 13.453598388122295], [79.82695641121943, 13.454735440175288], [79.82146718211565, 13.45931052370854], [79.82019635046001, 13.478261650305097], [79.8144575454969, 13.47973314121679], [79.80637761506638, 13.486934619451766], [79.8019541795222, 13.488067253049273], [79.79387875424156, 13.495264219238429], [79.78001537412779, 13.49498329293513], [79.77916821528194, 13.491665752056669]]]}}, {"type": "Feature", "properties": {"name": "Redhills catchment", "level": "reservoir-catchment", "source": "WWF/HydroSHEDS/v1/Basins/hybas_12", "year": "derived", "shedId": "KOSAS", "feeds": "Kosasthalaiyar"}, "geometry": {"type": "Polygon", "coordinates": [[[80.07147561888043, 13.143802354628853], [80.07182788156342, 13.134023500832548], [80.08965985501315, 13.132716985891472], [80.09790922682872, 13.125555689603042], [80.10369709717551, 13.12978294597686], [80.11041699500194, 13.12556013643617], [80.11450597692006, 13.128547775090976], [80.12299161703797, 13.129782962759132], [80.12708954284558, 13.132774971824173], [80.13533890295606, 13.125618115971303], [80.1491977390432, 13.124267009256386], [80.15082091348944, 13.113101387171868], [80.16450590335042, 13.100615934530799], [80.18132562027314, 13.099380798182501], [80.19367283884968, 13.092286322270445], [80.20000032259412, 13.091666544084017], [80.20056657157569, 13.102212301093353], [80.20982819224511, 13.116655299623007], [80.21445671002469, 13.113065748092088], [80.22378515642484, 13.111933177204143], [80.2255687723419, 13.118875941287047], [80.22860097821288, 13.122791030891673], [80.22973360258655, 13.131379244466592], [80.23276574500741, 13.13528994291165], [80.23389839897578, 13.177209934523745], [80.23693056297404, 13.181125033574657], [80.2380676710236, 13.18824616836925], [80.2282486787495, 13.203460648545347], [80.21862148855324, 13.204735989771631], [80.20918608160642, 13.2091861319292], [80.20748264349191, 13.215816834893856], [80.20195783241472, 13.217234770637134], [80.19680314150511, 13.221230123248628], [80.19498384956447, 13.228315638067548], [80.17982733635014, 13.234232924070655], [80.17838701090986, 13.249309162236267], [80.14271870364098, 13.250642433653132], [80.14102424743947, 13.239530282963836], [80.13318512042122, 13.230375772631758], [80.12596586602652, 13.22820419196844], [80.12435610882825, 13.222866649655742], [80.1165169934481, 13.213707697813092], [80.10070503308557, 13.207291005798167], [80.0992959342156, 13.18437566357109], [80.09262963121931, 13.182369119535746], [80.0881437747641, 13.172969326178835], [80.08685508132521, 13.164532707943113], [80.08269028519096, 13.156198655981063], [80.07147561888043, 13.143802354628853]]]}}, {"type": "Feature", "properties": {"name": "Chembarambakkam catchment", "level": "reservoir-catchment", "source": "WWF/HydroSHEDS/v1/Basins/hybas_12", "year": "derived", "shedId": "ADYAR", "feeds": "Adyar"}, "geometry": {"type": "Polygon", "coordinates": [[[79.8708339609821, 12.933332807091668], [79.87414700841087, 12.932481116061105], [79.87589051012368, 12.925694323797192], [79.89778921310189, 12.904732078874886], [79.90376885541012, 12.903198183307111], [79.91193347640615, 12.889709383761662], [79.91311954242322, 12.867659130440172], [79.91862210837981, 12.86306626982066], [79.92828050581296, 12.861790942050309], [79.93038072193276, 12.853599611694795], [79.95325593654668, 12.854790123773402], [79.95501732995247, 12.861648250541903], [79.95833488153043, 12.862499936805584], [79.95895018074332, 12.84783842016752], [79.9618843164162, 12.843825269824224], [79.9632933459649, 12.834126671019964], [79.97299195980439, 12.83271757931989], [79.98322107520538, 12.828008796429817], [79.99104685131387, 12.814658235051597], [79.992571885218, 12.800638854489652], [80.01054200995166, 12.799434848078741], [80.01887604615025, 12.795265612103144], [80.0333324758543, 12.78333310493717], [80.03924083248444, 12.787145618270225], [80.04825713097536, 12.787854635229914], [80.05174414315788, 12.79131483543812], [80.0607559842078, 12.792019386961533], [80.06424300398419, 12.795479678699923], [80.06909004998833, 12.796188643810622], [80.07745084627474, 12.804518244153982], [80.08159330613746, 12.80381372568192], [80.08507590434617, 12.800353412588272], [80.108334595215, 12.800001172941952], [80.108334595215, 12.808335240059845], [80.1006961698286, 12.80911114293347], [80.10000048653322, 12.824998911435623], [80.09657141783242, 12.825881774260656], [80.0952649523355, 12.83408211328375], [80.09953677977154, 12.839593539420145], [80.0922327919233, 12.847789329238505], [80.0911001363803, 12.868876429937762], [80.08806791464819, 12.872791558750944], [80.08806791464819, 12.88137529353864], [80.096754316307, 12.89512717747456], [80.10637698948801, 12.89640252434196], [80.12012888287606, 12.90926696354587], [80.12139969675707, 12.918876385608298], [80.12860118829744, 12.926956227491312], [80.12982740517708, 12.940766095834976], [80.13554403850925, 12.94223317030062], [80.14106436892398, 12.94683495729853], [80.14166635930486, 12.962499739941087], [80.13834875797747, 12.963351448194912], [80.13380045586554, 12.972916161432687], [80.13693082035705, 12.97695612013527], [80.13806781311233, 12.98554438595493], [80.14223265402525, 12.99461864377154], [80.13750157607763, 12.995831515020956], [80.13750157607763, 13.000000745056562], [80.13159321872203, 12.996188210169729], [80.12328590264535, 12.995479241705484], [80.11908989442547, 12.99964855473858], [80.09411895552284, 13.000353035507908], [80.08575815525056, 12.992019029252816], [80.07674184725647, 12.99131445099567], [80.06909004998833, 12.983684958958309], [80.05590889707494, 12.982980395039544], [80.04202327336277, 12.969121486988193], [80.04166653986195, 12.966664560353369], [80.03529003248352, 12.967235337389333], [80.01339140141339, 12.988197578509295], [80.01159433352316, 12.995193843888522], [79.99362417033512, 12.996402261513076], [79.98554432189226, 13.003599313964509], [79.97425384064142, 13.00890118469545], [79.96591979758136, 13.003599279461993], [79.96054210221679, 13.00776405957564], [79.9436242864933, 13.008901134326253], [79.93137517953511, 13.016098101479113], [79.92008469823118, 13.017235222388262], [79.91471144379969, 13.013065977438803], [79.88841169120755, 13.011884325311398], [79.88276651687755, 12.997789069348824], [79.87441906701606, 12.988420456332346], [79.86862217419461, 12.986931192381913], [79.85416583564641, 12.974998611196492], [79.85381354802617, 12.96424321411175], [79.85000102570707, 12.958334937497652], [79.8503577729209, 12.95587797266081], [79.85590930534521, 12.950353110215788], [79.86495240314302, 12.949644146063589], [79.87048165451164, 12.944092588935334], [79.8708339609821, 12.933332807091668]]]}}, {"type": "Feature", "properties": {"name": "Cholavaram catchment", "level": "reservoir-catchment", "source": "MERIT/Hydro/v1_0_1", "year": "derived", "shedId": "KOSAS", "feeds": "Kosasthalaiyar"}, "geometry": {"type": "Polygon", "coordinates": [[[80.09925915364092, 13.186130911614509], [80.09925915364092, 13.186958777293311], [80.1000840845681, 13.186958777293311], [80.1000840845681, 13.187786642972112], [80.09925915364092, 13.187786642972112], [80.09925915364092, 13.19109810568732], [80.09843422271373, 13.19109810568732], [80.09843422271373, 13.193581702723726], [80.09925915364092, 13.193581702723726], [80.09925915364092, 13.196893165438935], [80.09760929178654, 13.196893165438935], [80.09760929178654, 13.197721031117737], [80.09843422271373, 13.197721031117737], [80.09925915364092, 13.19937676247534], [80.10090901549528, 13.19937676247534], [80.10090901549528, 13.204343956548152], [80.09925915364092, 13.204343956548152], [80.09925915364092, 13.205171822226955], [80.1000840845681, 13.205171822226955], [80.10090901549528, 13.206827553584558], [80.10255887734964, 13.206827553584558], [80.10255887734964, 13.20765541926336], [80.10338380827682, 13.20765541926336], [80.104208739204, 13.209311150620964], [80.10585860105836, 13.209311150620964], [80.10585860105836, 13.210139016299767], [80.10750846291273, 13.210139016299767], [80.10750846291273, 13.209311150620964], [80.11080818662145, 13.209311150620964], [80.11080818662145, 13.210139016299767], [80.11163311754864, 13.210139016299767], [80.11163311754864, 13.21179474765737], [80.11410791033018, 13.21179474765737], [80.11410791033018, 13.212622613336173], [80.12070735774763, 13.212622613336173], [80.12070735774763, 13.213450479014975], [80.122357219602, 13.213450479014975], [80.122357219602, 13.214278344693778], [80.12565694331073, 13.213450479014975], [80.12565694331073, 13.214278344693778], [80.12483201238355, 13.214278344693778], [80.12565694331073, 13.215934076051381], [80.12483201238355, 13.215934076051381], [80.12483201238355, 13.216761941730184], [80.12153228867481, 13.217589807408984], [80.12153228867481, 13.215934076051381], [80.12070735774763, 13.215934076051381], [80.12070735774763, 13.216761941730184], [80.11905749589327, 13.217589807408984], [80.11823256496609, 13.220901270124193], [80.11905749589327, 13.220901270124193], [80.11988242682045, 13.222557001481796], [80.12070735774763, 13.222557001481796], [80.12070735774763, 13.224212732839401], [80.12153228867481, 13.224212732839401], [80.12153228867481, 13.225040598518204], [80.12565694331073, 13.225040598518204], [80.12648187423791, 13.226696329875807], [80.12730680516509, 13.226696329875807], [80.12730680516509, 13.22752419555461], [80.12813173609227, 13.22752419555461], [80.12895666701945, 13.225868464197005], [80.12978159794663, 13.225868464197005], [80.12978159794663, 13.226696329875807], [80.131431459801, 13.226696329875807], [80.131431459801, 13.229179926912213], [80.13225639072819, 13.229179926912213], [80.13225639072819, 13.230007792591016], [80.13390625258255, 13.230007792591016], [80.13390625258255, 13.231663523948619], [80.13473118350973, 13.231663523948619], [80.13473118350973, 13.232491389627421], [80.13638104536409, 13.232491389627421], [80.13638104536409, 13.233319255306222], [80.13720597629127, 13.233319255306222], [80.13720597629127, 13.23580285234263], [80.13555611443691, 13.23580285234263], [80.13555611443691, 13.239114315057837], [80.13473118350973, 13.239114315057837], [80.13473118350973, 13.24490937480945], [80.13555611443691, 13.24490937480945], [80.13555611443691, 13.245737240488253], [80.13473118350973, 13.245737240488253], [80.13473118350973, 13.24822083752466], [80.13390625258255, 13.24822083752466], [80.13473118350973, 13.251532300239868], [80.13638104536409, 13.251532300239868], [80.13720597629127, 13.249876568882263], [80.13885583814563, 13.249876568882263], [80.13885583814563, 13.24822083752466], [80.1405057, 13.249048703203462], [80.1405057, 13.249876568882263], [80.14380542370873, 13.249876568882263], [80.14380542370873, 13.250704434561065], [80.14628021649027, 13.250704434561065], [80.14628021649027, 13.249876568882263], [80.14793007834463, 13.249876568882263], [80.14793007834463, 13.249048703203462], [80.15287966390773, 13.249048703203462], [80.15287966390773, 13.249876568882263], [80.15535445668927, 13.249876568882263], [80.15617938761645, 13.24822083752466], [80.15947911132518, 13.24822083752466], [80.15947911132518, 13.245737240488253], [80.16030404225236, 13.245737240488253], [80.16030404225236, 13.240770046415442], [80.16112897317954, 13.240770046415442], [80.16195390410672, 13.237458583700233], [80.1627788350339, 13.237458583700233], [80.1627788350339, 13.233319255306222], [80.16112897317954, 13.232491389627421], [80.16112897317954, 13.231663523948619], [80.1627788350339, 13.231663523948619], [80.1627788350339, 13.230835658269816], [80.16442869688827, 13.230835658269816], [80.16442869688827, 13.230007792591016], [80.167728420597, 13.230007792591016], [80.167728420597, 13.230835658269816], [80.17020321337854, 13.230835658269816], [80.17020321337854, 13.230007792591016], [80.1718530752329, 13.230007792591016], [80.1718530752329, 13.22835206123341], [80.17267800616008, 13.22835206123341], [80.17267800616008, 13.226696329875807], [80.17350293708726, 13.226696329875807], [80.17350293708726, 13.224212732839401], [80.1718530752329, 13.223384867160599], [80.1718530752329, 13.221729135802995], [80.17102814430572, 13.221729135802995], [80.17102814430572, 13.220901270124193], [80.17020321337854, 13.220901270124193], [80.16937828245136, 13.21924553876659], [80.16855335152418, 13.21924553876659], [80.16855335152418, 13.218417673087787], [80.16607855874264, 13.218417673087787], [80.16607855874264, 13.21924553876659], [80.16442869688827, 13.21924553876659], [80.16442869688827, 13.218417673087787], [80.16360376596108, 13.218417673087787], [80.16360376596108, 13.21924553876659], [80.16112897317954, 13.21924553876659], [80.16112897317954, 13.218417673087787], [80.15947911132518, 13.218417673087787], [80.15947911132518, 13.217589807408984], [80.158654180398, 13.217589807408984], [80.158654180398, 13.215934076051381], [80.15947911132518, 13.215934076051381], [80.15947911132518, 13.215106210372578], [80.15782924947082, 13.214278344693778], [80.15782924947082, 13.212622613336173], [80.15700431854363, 13.212622613336173], [80.15700431854363, 13.21179474765737], [80.15782924947082, 13.21179474765737], [80.15782924947082, 13.210139016299767], [80.15617938761645, 13.210139016299767], [80.15617938761645, 13.209311150620964], [80.1537045948349, 13.209311150620964], [80.1537045948349, 13.210139016299767], [80.15122980205336, 13.210139016299767], [80.15122980205336, 13.209311150620964], [80.15040487112618, 13.209311150620964], [80.15040487112618, 13.210139016299767], [80.14875500927181, 13.210139016299767], [80.14875500927181, 13.21096688197857], [80.14793007834463, 13.21096688197857], [80.14793007834463, 13.210139016299767], [80.14628021649027, 13.210139016299767], [80.14628021649027, 13.208483284942163], [80.14545528556309, 13.208483284942163], [80.14545528556309, 13.205171822226955], [80.14628021649027, 13.205171822226955], [80.14628021649027, 13.204343956548152], [80.14545528556309, 13.204343956548152], [80.14545528556309, 13.201860359511747], [80.14380542370873, 13.201032493832944], [80.14380542370873, 13.19937676247534], [80.14298049278155, 13.19937676247534], [80.14298049278155, 13.196893165438935], [80.14133063092719, 13.196893165438935], [80.14133063092719, 13.195237434081331], [80.1405057, 13.195237434081331], [80.1405057, 13.193581702723726], [80.13968076907281, 13.193581702723726], [80.13968076907281, 13.192753837044924], [80.13473118350973, 13.192753837044924], [80.13390625258255, 13.19109810568732], [80.12978159794663, 13.19109810568732], [80.12978159794663, 13.189442374329717], [80.12730680516509, 13.189442374329717], [80.12730680516509, 13.188614508650915], [80.12648187423791, 13.188614508650915], [80.12648187423791, 13.189442374329717], [80.12400708145637, 13.189442374329717], [80.12400708145637, 13.187786642972112], [80.12153228867481, 13.187786642972112], [80.12153228867481, 13.188614508650915], [80.12070735774763, 13.188614508650915], [80.12070735774763, 13.187786642972112], [80.11823256496609, 13.187786642972112], [80.11823256496609, 13.188614508650915], [80.11658270311173, 13.188614508650915], [80.11658270311173, 13.187786642972112], [80.11575777218455, 13.187786642972112], [80.11575777218455, 13.188614508650915], [80.11163311754864, 13.188614508650915], [80.11163311754864, 13.185303045935706], [80.11080818662145, 13.185303045935706], [80.10998325569427, 13.183647314578103], [80.10585860105836, 13.183647314578103], [80.10585860105836, 13.184475180256904], [80.104208739204, 13.184475180256904], [80.104208739204, 13.183647314578103], [80.10173394642246, 13.183647314578103], [80.10173394642246, 13.184475180256904], [80.10090901549528, 13.184475180256904], [80.10090901549528, 13.186130911614509], [80.09925915364092, 13.186130911614509]]]}}]}