{
  "type": "FeatureCollection",
  "name": "hyderabad-flood-hotspots",
  "crs": { "type": "name", "properties": { "name": "urn:ogc:def:crs:OGC:1.3:CRS84" } },
  "features": [
    {
      "type": "Feature",
      "properties": { "name": "Moosarambagh Causeway", "category": "chronic_spot", "location": "Musi River Moosarambagh Low Bridge", "ward": "Ward 25 (LB Nagar)", "peak_depth_m": 1.2, "year": "2020/2022" },
      "geometry": { "type": "Point", "coordinates": [78.5120, 17.3710] }
    },
    {
      "type": "Feature",
      "properties": { "name": "Chaderghat Riverbank Bridge", "category": "chronic_spot", "location": "Chaderghat Musi Causeway", "ward": "Ward 52 (Charminar)", "peak_depth_m": 1.0, "year": "2020" },
      "geometry": { "type": "Point", "coordinates": [78.4910, 17.3740] }
    },
    {
      "type": "Feature",
      "properties": { "name": "Tolichowki Nadeem Colony Basin", "category": "chronic_spot", "location": "Nadeem Colony Lowland Grid", "ward": "Ward 70 (Tolichowki)", "peak_depth_m": 0.85, "year": "2020/2021" },
      "geometry": { "type": "Point", "coordinates": [78.4020, 17.3990] }
    },
    {
      "type": "Feature",
      "properties": { "name": "Begumpet Railway Bridge Nala", "category": "chronic_spot", "location": "Old Airport Road Underpass", "ward": "Ward 148 (Begumpet)", "peak_depth_m": 0.75, "year": "2021" },
      "geometry": { "type": "Point", "coordinates": [78.4720, 17.4430] }
    },
    {
      "type": "Feature",
      "properties": { "name": "Nizampet Bhandari Layout", "category": "chronic_spot", "location": "Turka Cheruvu Overflow Channel", "ward": "Nizampet Municipal Corp", "peak_depth_m": 0.70, "year": "2020" },
      "geometry": { "type": "Point", "coordinates": [78.3880, 17.5180] }
    },
    {
      "type": "Feature",
      "properties": { "name": "Hafiz Baba Nagar / Phoolbagh", "category": "chronic_spot", "location": "Balapur Lake Surplus Nullah", "ward": "Ward 43 (Chandrayangutta)", "peak_depth_m": 0.90, "year": "2020" },
      "geometry": { "type": "Point", "coordinates": [78.4920, 17.3290] }
    },
    {
      "type": "Feature",
      "properties": { "name": "Alwal - Reddy Enclave Nala", "category": "chronic_spot", "location": "Chinna Rayudu Cheruvu Outfall", "ward": "Ward 133 (Alwal)", "peak_depth_m": 0.60, "year": "2021" },
      "geometry": { "type": "Point", "coordinates": [78.5080, 17.4780] }
    }
  ]
}
