{
  "type": "FeatureCollection",
  "name": "pune-drainage",
  "crs": { "type": "name", "properties": { "name": "urn:ogc:def:crs:OGC:1.3:CRS84" } },
  "features": [
    {
      "type": "Feature",
      "properties": { "id": "PUN-DR-001", "name": "Ambil Odha Macro Nullah", "street": "Katraj to Vaikunth Ambil Odha", "drain_type": "macro", "type": "macro", "drain_wid": 4.5, "drain_dep": 3.0, "drain_len": 7200, "status": "Bad", "material": "Masonry Channel Wall", "ward": "Ward 36 (Sahakarnagar)", "zone": "Sinhagad Road Zone" },
      "geometry": { "type": "LineString", "coordinates": [ [73.8580, 18.4550], [73.8540, 18.4820], [73.8480, 18.5050], [73.8420, 18.5180] ] }
    },
    {
      "type": "Feature",
      "properties": { "id": "PUN-DR-002", "name": "Nagzari Nala Macro Drain", "street": "Old City Nagzari Spine", "drain_type": "macro", "type": "macro", "drain_wid": 3.8, "drain_dep": 2.6, "drain_len": 5100, "status": "Bad", "material": "Stone Masonry", "ward": "Ward 22 (Kasba Peth)", "zone": "Kasba-Vishrambaug Zone" },
      "geometry": { "type": "LineString", "coordinates": [ [73.8650, 18.4980], [73.8620, 18.5120], [73.8580, 18.5250], [73.8550, 18.5320] ] }
    },
    {
      "type": "Feature",
      "properties": { "id": "PUN-DR-003", "name": "Bhairoba Nala Trunk", "street": "Camp to Mundhwa Drain", "drain_type": "macro", "type": "macro", "drain_wid": 4.0, "drain_dep": 2.8, "drain_len": 6400, "status": "Good", "material": "Concrete Channel", "ward": "Ward 28 (Wanowrie)", "zone": "Hadapsar-Mundhwa Zone" },
      "geometry": { "type": "LineString", "coordinates": [ [73.8920, 18.4850], [73.8980, 18.5050], [73.9080, 18.5220], [73.9180, 18.5350] ] }
    },
    {
      "type": "Feature",
      "properties": { "id": "PUN-DR-004", "name": "Mutha Right Bank Canal", "street": "Sinhagad Road Canal Corridor", "drain_type": "macro", "type": "macro", "drain_wid": 4.0, "drain_dep": 2.5, "drain_len": 8500, "status": "Good", "material": "Concrete Lined Canal", "ward": "Ward 35 (Khadakwasla)", "zone": "Sinhagad Road Zone" },
      "geometry": { "type": "LineString", "coordinates": [ [73.7680, 18.4450], [73.8050, 18.4720], [73.8320, 18.4980], [73.8550, 18.5080] ] }
    },
    {
      "type": "Feature",
      "properties": { "id": "PUN-DR-005", "name": "Sinhagad Road Ekta Nagari Channel", "street": "Ekta Nagari Flood Relief Drain", "drain_type": "macro", "type": "macro", "drain_wid": 3.8, "drain_dep": 2.4, "drain_len": 3200, "status": "Bad", "material": "RCC Box Culvert", "ward": "Ward 34 (Sun City)", "zone": "Sinhagad Road Zone" },
      "geometry": { "type": "LineString", "coordinates": [ [73.8210, 18.4810], [73.8320, 18.4920], [73.8410, 18.5020] ] }
    },
    {
      "type": "Feature",
      "properties": { "id": "PUN-DR-006", "name": "Ram Nadi Storm Conduit", "street": "Pashan to Baner Corridor", "drain_type": "micro", "type": "micro", "drain_wid": 3.2, "drain_dep": 2.0, "drain_len": 4800, "status": "Good", "material": "Natural & Masonry Bank", "ward": "Ward 9 (Baner)", "zone": "Aundh-Baner Zone" },
      "geometry": { "type": "LineString", "coordinates": [ [73.7850, 18.5320], [73.7920, 18.5480], [73.8020, 18.5620] ] }
    },
    {
      "type": "Feature",
      "properties": { "id": "PUN-DR-007", "name": "Deccan Pulachi Wadi SWD", "street": "JM Road to Z-Bridge SWD", "drain_type": "swd", "type": "swd", "drain_wid": 2.2, "drain_dep": 1.6, "drain_len": 2100, "status": "Bad", "material": "RCC Covered", "ward": "Ward 15 (Deccan Gymkhana)", "zone": "Shivajinagar-Ghole Road Zone" },
      "geometry": { "type": "LineString", "coordinates": [ [73.8420, 18.5150], [73.8480, 18.5190], [73.8540, 18.5220] ] }
    },
    {
      "type": "Feature",
      "properties": { "id": "PUN-DR-008", "name": "Kothrud Paud Road SWD", "street": "Paud Road Arterial Conduit", "drain_type": "swd", "type": "swd", "drain_wid": 1.8, "drain_dep": 1.3, "drain_len": 3500, "status": "Good", "material": "Reinforced Concrete", "ward": "Ward 12 (Kothrud)", "zone": "Kothrud-Bavdhan Zone" },
      "geometry": { "type": "LineString", "coordinates": [ [73.8020, 18.5050], [73.8210, 18.5080], [73.8380, 18.5120] ] }
    },
    {
      "type": "Feature",
      "properties": { "id": "PUN-DR-009", "name": "Shivajinagar FC Road SWD", "street": "Fergusson College Road Drain", "drain_type": "swd", "type": "swd", "drain_wid": 1.6, "drain_dep": 1.2, "drain_len": 2400, "status": "Good", "material": "RCC Precast Box", "ward": "Ward 14 (Model Colony)", "zone": "Shivajinagar-Ghole Road Zone" },
      "geometry": { "type": "LineString", "coordinates": [ [73.8390, 18.5210], [73.8440, 18.5280], [73.8510, 18.5320] ] }
    },
    {
      "type": "Feature",
      "properties": { "id": "PUN-DR-010", "name": "Hadapsar Magarpatta SWD", "street": "Magarpatta Cybercity Channel", "drain_type": "swd", "type": "swd", "drain_wid": 2.0, "drain_dep": 1.5, "drain_len": 3100, "status": "Good", "material": "RCC Box Culvert", "ward": "Ward 24 (Hadapsar)", "zone": "Hadapsar-Mundhwa Zone" },
      "geometry": { "type": "LineString", "coordinates": [ [73.9180, 18.5120], [73.9280, 18.5180], [73.9350, 18.5250] ] }
    },
    {
      "type": "Feature",
      "properties": { "id": "PUN-DR-011", "name": "Swargate Junction Box Drain", "street": "Swargate Flyover Underpass SWD", "drain_type": "swd", "type": "swd", "drain_wid": 2.0, "drain_dep": 1.5, "drain_len": 1800, "status": "Bad", "material": "Box Culvert", "ward": "Ward 20 (Swargate)", "zone": "Kasba-Vishrambaug Zone" },
      "geometry": { "type": "LineString", "coordinates": [ [73.8550, 18.5010], [73.8580, 18.5080], [73.8620, 18.5140] ] }
    },
    {
      "type": "Feature",
      "properties": { "id": "PUN-DR-012", "name": "Baner High Street SWD Main", "street": "Baner Road Arterial Drain", "drain_type": "swd", "type": "swd", "drain_wid": 1.5, "drain_dep": 1.2, "drain_len": 2900, "status": "Good", "material": "RCC Precast", "ward": "Ward 8 (Baner)", "zone": "Aundh-Baner Zone" },
      "geometry": { "type": "LineString", "coordinates": [ [73.7820, 18.5580], [73.7950, 18.5610], [73.8080, 18.5630] ] }
    },
    {
      "type": "Feature",
      "properties": { "id": "PUN-DR-013", "name": "Viman Nagar Airport Road Drain", "street": "Airport Road Side Drain", "drain_type": "side", "type": "side", "drain_wid": 1.2, "drain_dep": 0.8, "drain_len": 2200, "status": "Good", "material": "Kerb-level Covered", "ward": "Ward 3 (Viman Nagar)", "zone": "Nagar Road-Vadgaon Sheri Zone" },
      "geometry": { "type": "LineString", "coordinates": [ [73.9050, 18.5620], [73.9180, 18.5680], [73.9280, 18.5720] ] }
    },
    {
      "type": "Feature",
      "properties": { "id": "PUN-DR-014", "name": "Katraj Lake Overflow Nullah", "street": "Katraj Lake Sluice Channel", "drain_type": "open", "type": "open", "drain_wid": 2.5, "drain_dep": 1.2, "drain_len": 2100, "status": "Good", "material": "Earthen Unlined", "ward": "Ward 38 (Katraj)", "zone": "Dhankawadi-Sahakarnagar Zone" },
      "geometry": { "type": "LineString", "coordinates": [ [73.8580, 18.4480], [73.8610, 18.4550], [73.8640, 18.4620] ] }
    },
    {
      "type": "Feature",
      "properties": { "id": "PUN-DR-015", "name": "Koregaon Park North Main Road", "street": "Lane 7 Koregaon Park SWD", "drain_type": "side", "type": "side", "drain_wid": 1.0, "drain_dep": 0.7, "drain_len": 1600, "status": "Good", "material": "Concrete Kerb Channel", "ward": "Ward 21 (Koregaon Park)", "zone": "Dhole Patil Road Zone" },
      "geometry": { "type": "LineString", "coordinates": [ [73.8920, 18.5350], [73.8980, 18.5380], [73.9050, 18.5420] ] }
    }
  ]
}
