{"type":"FeatureCollection","features":[{"type":"Feature","geometry":{"type":"Point","coordinates":[77.48766,13.14152]},"properties":{"name":"Hesaraghatta Reservoir","liveId":18,"district":"Bengaluru Urban","subBasin":"C5"}},{"type":"Feature","geometry":{"type":"Point","coordinates":[77.52761,12.80467]},"properties":{"name":"Obichudanahally Tank","liveId":179,"district":"Bengaluru Urban","subBasin":"C5"}},{"type":"Feature","geometry":{"type":"Point","coordinates":[77.34066,12.96458]},"properties":{"name":"Tippagondana Hally","liveId":20,"district":"Bengaluru Urban","subBasin":"C5"}},{"type":"Feature","geometry":{"type":"Point","coordinates":[75.86648,13.17548]},"properties":{"name":"Yagachi Dam","liveId":203,"district":"Hassan","subBasin":"C1"}},{"type":"Feature","geometry":{"type":"Point","coordinates":[75.91152,13.05716]},"properties":{"name":"Votehole Dam","liveId":152,"district":"Hassan","subBasin":"C1"}},{"type":"Feature","geometry":{"type":"Point","coordinates":[76.87393,13.24215]},"properties":{"name":"Kadaba Tank","liveId":53,"district":"Tumakuru","subBasin":"C4"}},{"type":"Feature","geometry":{"type":"Point","coordinates":[76.86769,13.32719]},"properties":{"name":"Nittur Tank","liveId":165,"district":"Tumakuru","subBasin":"C4"}},{"type":"Feature","geometry":{"type":"Point","coordinates":[76.68666,11.93701]},"properties":{"name":"Kamarahalli Tank","liveId":64,"district":"Chamrajnagar","subBasin":"C2"}},{"type":"Feature","geometry":{"type":"Point","coordinates":[76.69005,11.74551]},"properties":{"name":"Kalikatte Tank","liveId":68,"district":"Chamrajnagar","subBasin":"C2"}},{"type":"Feature","geometry":{"type":"Point","coordinates":[76.64839,11.64738]},"properties":{"name":"Mangala Tank","liveId":72,"district":"Chamrajnagar","subBasin":"C9"}},{"type":"Feature","geometry":{"type":"Point","coordinates":[76.64839,11.64738]},"properties":{"name":"Mangala Tank","liveId":106,"district":"Chamrajnagar","subBasin":"C9"}},{"type":"Feature","geometry":{"type":"Point","coordinates":[76.70365,11.83837]},"properties":{"name":"Nallur Amanikere Dam","liveId":163,"district":"Chamrajnagar","subBasin":"C2"}},{"type":"Feature","geometry":{"type":"Point","coordinates":[76.62489,13.17725]},"properties":{"name":"Mallaghatta Tank","liveId":218,"district":"Tumakuru","subBasin":"C4"}},{"type":"Feature","geometry":{"type":"Point","coordinates":[76.66925,13.17256]},"properties":{"name":"Turuvekere Tank","liveId":223,"district":"Tumakuru","subBasin":"C4"}},{"type":"Feature","geometry":{"type":"Point","coordinates":[76.2354,12.99853]},"properties":{"name":"Chakena Hally Tank","liveId":74,"district":"Hassan","subBasin":"C1"}},{"type":"Feature","geometry":{"type":"Point","coordinates":[76.05584,12.82246]},"properties":{"name":"Hemavathy Dam","liveId":5,"district":"Hassan","subBasin":"C1","liveCode":"hemavathi"}},{"type":"Feature","geometry":{"type":"Point","coordinates":[76.36515,12.1958]},"properties":{"name":"Karimuddenahalli Tank","liveId":86,"district":"Mysuru","subBasin":"C2"}},{"type":"Feature","geometry":{"type":"Point","coordinates":[76.15851,12.22656]},"properties":{"name":"Kachavanahalli Tank","liveId":92,"district":"Mysuru","subBasin":"C1"}},{"type":"Feature","geometry":{"type":"Point","coordinates":[77.37558,12.80989]},"properties":{"name":"Nelligudda Tank","liveId":27,"district":"Ramanagara","subBasin":"C5"}},{"type":"Feature","geometry":{"type":"Point","coordinates":[77.42141,12.75699]},"properties":{"name":"Byramangala Tank","liveId":28,"district":"Ramanagara","subBasin":"C5"}},{"type":"Feature","geometry":{"type":"Point","coordinates":[75.89975,12.49305]},"properties":{"name":"Harangi Dam","liveId":4,"district":"Kodagu","subBasin":"C1","liveCode":"harangi"}},{"type":"Feature","geometry":{"type":"Point","coordinates":[75.87881,12.39671]},"properties":{"name":"Chiklihole Dam","liveId":154,"district":"Kodagu","subBasin":"C1"}},{"type":"Feature","geometry":{"type":"Point","coordinates":[77.1159,12.05107]},"properties":{"name":"Gowdahally Tank","liveId":143,"district":"Chamrajnagar","subBasin":"C3"}},{"type":"Feature","geometry":{"type":"Point","coordinates":[77.09043,12.0213]},"properties":{"name":"Hosahalli Tank","liveId":156,"district":"Chamrajnagar","subBasin":"C3"}},{"type":"Feature","geometry":{"type":"Point","coordinates":[77.44173,12.42248]},"properties":{"name":"Arkavathy Dam","liveId":207,"district":"Ramanagara","subBasin":"C5"}},{"type":"Feature","geometry":{"type":"Point","coordinates":[77.45692,12.56243]},"properties":{"name":"Maralvadi Dam","liveId":22,"district":"Ramanagara","subBasin":"C5"}},{"type":"Feature","geometry":{"type":"Point","coordinates":[77.3782,12.41541]},"properties":{"name":"Doddaladahalli Tank","liveId":34,"district":"Ramanagara","subBasin":"C5"}},{"type":"Feature","geometry":{"type":"Point","coordinates":[77.5866,12.40378]},"properties":{"name":"Chikkagondanahally Tank","liveId":112,"district":"Ramanagara","subBasin":"C5"}},{"type":"Feature","geometry":{"type":"Point","coordinates":[77.34722,12.18782]},"properties":{"name":"Alagapura Tank","liveId":173,"district":"Chamrajnagar","subBasin":"C7"}},{"type":"Feature","geometry":{"type":"Point","coordinates":[77.6832,12.04993]},"properties":{"name":"Gopinatham Tank","liveId":176,"district":"Chamrajnagar","subBasin":"C7"}},{"type":"Feature","geometry":{"type":"Point","coordinates":[77.33104,12.0006]},"properties":{"name":"Uduthorehalla Dam","liveId":230,"district":"Chamrajnagar","subBasin":"C7"}},{"type":"Feature","geometry":{"type":"Point","coordinates":[77.20011,12.0916]},"properties":{"name":"Gundal Dam","liveId":126,"district":"Chamrajnagar","subBasin":"C6"}},{"type":"Feature","geometry":{"type":"Point","coordinates":[77.06964,12.85558]},"properties":{"name":"Deepambudikere Tank","liveId":96,"district":"Tumakuru","subBasin":"C4"}},{"type":"Feature","geometry":{"type":"Point","coordinates":[77.02543,13.03375]},"properties":{"name":"Kunigal Dodakere Tank","liveId":87,"district":"Tumakuru","subBasin":"C4"}},{"type":"Feature","geometry":{"type":"Point","coordinates":[77.08106,12.77009]},"properties":{"name":"Nidasale Tank","liveId":140,"district":"Tumakuru","subBasin":"C4"}},{"type":"Feature","geometry":{"type":"Point","coordinates":[76.88215,12.93295]},"properties":{"name":"Marconahally","liveId":25,"district":"Tumakuru","subBasin":"C4"}},{"type":"Feature","geometry":{"type":"Point","coordinates":[76.98484,12.88693]},"properties":{"name":"K.Honnamachanahalli","liveId":32,"district":"Tumakuru","subBasin":"C4"}},{"type":"Feature","geometry":{"type":"Point","coordinates":[77.00222,12.81901]},"properties":{"name":"Muthurayanakere","liveId":80,"district":"Tumakuru","subBasin":"C4"}},{"type":"Feature","geometry":{"type":"Point","coordinates":[77.33606,12.87316]},"properties":{"name":"Manchanabele","liveId":190,"district":"Ramanagara","subBasin":"C5"}},{"type":"Feature","geometry":{"type":"Point","coordinates":[76.64311,12.56179]},"properties":{"name":"Thonnur Tank","liveId":197,"district":"Mandya","subBasin":"C6"}},{"type":"Feature","geometry":{"type":"Point","coordinates":[76.09871,12.25068]},"properties":{"name":"Alalur Tank","liveId":141,"district":"Mysuru","subBasin":"C1"}},{"type":"Feature","geometry":{"type":"Point","coordinates":[76.57248,12.42155]},"properties":{"name":"K.R.Sagara Dam","liveId":6,"district":"Mandya","subBasin":"C6","liveCode":"krs"}},{"type":"Feature","geometry":{"type":"Point","coordinates":[76.7565,13.08822]},"properties":{"name":"Mayasandra Tank","liveId":219,"district":"Tumakuru","subBasin":"C4"}},{"type":"Feature","geometry":{"type":"Point","coordinates":[76.71371,13.22435]},"properties":{"name":"Sarigehally Tank","liveId":221,"district":"Tumakuru","subBasin":"C4"}},{"type":"Feature","geometry":{"type":"Point","coordinates":[77.18827,13.31131]},"properties":{"name":"Maidal Amanikere Tank","liveId":115,"district":"Tumakuru","subBasin":"C4"}},{"type":"Feature","geometry":{"type":"Point","coordinates":[76.9833,11.8416]},"properties":{"name":"Chickkahole","liveId":37,"district":"Chamrajnagar","subBasin":"C3"}},{"type":"Feature","geometry":{"type":"Point","coordinates":[76.91882,11.85488]},"properties":{"name":"New Tank Amachawadi","liveId":148,"district":"Chamrajnagar","subBasin":"C3"}},{"type":"Feature","geometry":{"type":"Point","coordinates":[77.01598,11.82702]},"properties":{"name":"Suvarnavathy Dam","liveId":149,"district":"Chamrajnagar","subBasin":"C3"}},{"type":"Feature","geometry":{"type":"Point","coordinates":[77.13676,12.47385]},"properties":{"name":"Iggalur Dam","liveId":193,"district":"Ramanagara","subBasin":"C4"}},{"type":"Feature","geometry":{"type":"Point","coordinates":[76.4462,11.97555]},"properties":{"name":"Nugu Dam","liveId":39,"district":"Mysuru","subBasin":"C2"}},{"type":"Feature","geometry":{"type":"Point","coordinates":[76.33081,12.10747]},"properties":{"name":"Hebbahalla Dam","liveId":57,"district":"Mysuru","subBasin":"C2"}},{"type":"Feature","geometry":{"type":"Point","coordinates":[76.15861,11.94255]},"properties":{"name":"Bellathasanahalla Tank","liveId":61,"district":"Mysuru","subBasin":"C2"}},{"type":"Feature","geometry":{"type":"Point","coordinates":[76.35364,11.97262]},"properties":{"name":"Kabini Dam","liveId":7,"district":"Mysuru","subBasin":"C2","liveCode":"kabini"}},{"type":"Feature","geometry":{"type":"Point","coordinates":[76.26069,12.0373]},"properties":{"name":"Taraka Dam","liveId":150,"district":"Mysuru","subBasin":"C2"}}]}