{
 "nvdm": "1.0",
 "dataset": "data-root/flood-hotspots",
 "scope": {
  "kind": "region",
  "id": "mumbai"
 },
 "provenance": {
  "sources": [
   {
    "id": "bmc-dm-floodspots",
    "title": "BMC Disaster Management flood-spot register (floodSpot/loadAll API)",
    "publisher": "BMC Disaster Management (dmwebtwo.mcgm.gov.in)",
    "license": "BMC government portal API, no stated licence - cited with attribution"
   }
  ],
  "method": "api",
  "produced_at": "2026-08-24",
  "produced_by": "neer-vazhvu-api/scripts/scrape_bmc_flood_spots.py",
  "note": "BMC's own flood-spot register (~110 chronic/monitored spots with official names, wards, coordinates, AWS station ids), replacing the earlier hand-curated press layer. The FULL pre-monsoon list (496 spots in 2026) is not published with locations - a named gap. Weekly cron (bmc-floodspots-refresh.yml) writes through scripts/nvdm_write.py so this envelope survives the rewrite."
 },
 "type": "FeatureCollection",
 "name": "mumbai-flood-hotspots",
 "_provenance": "BMC Disaster Management flood-spot register (dmwebtwo.mcgm.gov.in floodSpot/loadAll, fetched 2026-08-24): the officially mapped chronic/monitored subset of the city's pre-monsoon flooding-spot list, with BMC's own names, wards and coordinates; each spot is tied to an automatic weather station. The FULL pre-monsoon list (496 spots in 2026) is not published with locations.",
 "features": [
  {
   "type": "Feature",
   "geometry": {
    "type": "Point",
    "coordinates": [
     72.830973,
     19.210437
    ]
   },
   "properties": {
    "name": "Jijamata Nagar",
    "category": "chronic_spot",
    "category_label": "Chronic flooding spot (BMC DM register)",
    "bmc_type": "Chronic Flooding Spot",
    "location": "Bander Pakhadi Road,Opp ICICI Bank,Khandiwali West,Mumbai,400067",
    "ward": "R/S",
    "feature_id": "FS23000000002",
    "aws_station_id": "WS17350400052"
   }
  },
  {
   "type": "Feature",
   "geometry": {
    "type": "Point",
    "coordinates": [
     72.839513,
     19.203396
    ]
   },
   "properties": {
    "name": "Maharastar Nagar",
    "category": "chronic_spot",
    "category_label": "Chronic flooding spot (BMC DM register)",
    "bmc_type": "Chronic Flooding Spot",
    "location": "Link Road,Near Arihant Tower,Kandiwali West,Mumbai,400067",
    "ward": "R/S",
    "feature_id": "FS23000000004",
    "aws_station_id": "WS17350400052"
   }
  },
  {
   "type": "Feature",
   "geometry": {
    "type": "Point",
    "coordinates": [
     72.83032,
     19.207431
    ]
   },
   "properties": {
    "name": "Maruti Nagar",
    "category": "chronic_spot",
    "category_label": "Chronic flooding spot (BMC DM register)",
    "bmc_type": "Chronic Flooding Spot",
    "location": "Mahatma Gandhi Road,Near Sulabh Sauchalaya,Khandiwali West,Mumbai,400067",
    "ward": "R/S",
    "feature_id": "FS23000000001",
    "aws_station_id": "WS17350400052"
   }
  },
  {
   "type": "Feature",
   "geometry": {
    "type": "Point",
    "coordinates": [
     72.83732,
     19.160162
    ]
   },
   "properties": {
    "name": "Shastri Nagar",
    "category": "chronic_spot",
    "category_label": "Chronic flooding spot (BMC DM register)",
    "bmc_type": "Chronic Flooding Spot",
    "location": "Sonawala Cross Lane,Near Shastri Nagar Ground,Goregoan West,Mumbai,400104",
    "ward": "P/S",
    "feature_id": "FS13000000004",
    "aws_station_id": "WS16304600047"
   }
  },
  {
   "type": "Feature",
   "geometry": {
    "type": "Point",
    "coordinates": [
     72.838185,
     19.167183
    ]
   },
   "properties": {
    "name": "Siddhartha Hospital",
    "category": "chronic_spot",
    "category_label": "Chronic flooding spot (BMC DM register)",
    "bmc_type": "Chronic Flooding Spot",
    "location": "Road No 16,Near Siddhartha Hospital,Goregoan West,Mumbai,400104",
    "ward": "P/S",
    "feature_id": "FS13000000003",
    "aws_station_id": "WS16304600047"
   }
  },
  {
   "type": "Feature",
   "geometry": {
    "type": "Point",
    "coordinates": [
     72.86694,
     19.196327
    ]
   },
   "properties": {
    "name": "Hanuman Nagar, Sanjivani Chawl",
    "category": "chronic_spot",
    "category_label": "Chronic flooding spot (BMC DM register)",
    "bmc_type": "Chronic Flooding Spot",
    "location": "Vadarpada Road, Near Sree Coaching Classes, Kandivali, Mumbai, 400101",
    "ward": "R/S",
    "feature_id": "FS23000000008",
    "aws_station_id": "WS18364300053"
   }
  },
  {
   "type": "Feature",
   "geometry": {
    "type": "Point",
    "coordinates": [
     72.872746,
     19.08039
    ]
   },
   "properties": {
    "name": "Air India Colony N Building (Air India Road)",
    "category": "flooding_spot",
    "category_label": "Flooding Spot (BMC DM register)",
    "bmc_type": "Flooding Spot",
    "location": "Air India Colony N Building,Air India Road,Near Air India Colony N Building,Air India Colony,Mumbai,400029",
    "ward": "H/E",
    "feature_id": "FS21000000002",
    "aws_station_id": "WS19207400037"
   }
  },
  {
   "type": "Feature",
   "geometry": {
    "type": "Point",
    "coordinates": [
     72.847567,
     19.124351
    ]
   },
   "properties": {
    "name": "Andheri Subway",
    "category": "subway",
    "category_label": "Flood-prone subway (Chronic Flooding Spot, BMC DM register)",
    "bmc_type": "Chronic Flooding Spot",
    "location": "Andheri Subway Road, Near Rajdhani Restaurant, Andheri East, Mumbai, 400069",
    "ward": "K/E",
    "feature_id": "FS11000000016",
    "aws_station_id": "WS17260000032"
   }
  },
  {
   "type": "Feature",
   "geometry": {
    "type": "Point",
    "coordinates": [
     72.84306,
     19.090048
    ]
   },
   "properties": {
    "name": "Milan Subway In Nala",
    "category": "subway",
    "category_label": "Flood-prone subway (Chronic Flooding Spot, BMC DM register)",
    "bmc_type": "Chronic Flooding Spot",
    "location": "Milan Subway,Near Milan Subway,Santacruz,Mumbai,400029",
    "ward": "H/E",
    "feature_id": "FS21000000009",
    "aws_station_id": "WS21000010001"
   }
  },
  {
   "type": "Feature",
   "geometry": {
    "type": "Point",
    "coordinates": [
     72.835213,
     19.063749
    ]
   },
   "properties": {
    "name": "National College, Bandra West",
    "category": "chronic_spot",
    "category_label": "Chronic flooding spot (BMC DM register)",
    "bmc_type": "Chronic Flooding Spot",
    "location": "Linking Road, Near National College, Bandra West, Mumbai, 400050",
    "ward": "H/W",
    "feature_id": "FS10000000041",
    "aws_station_id": "WS15181900028"
   }
  },
  {
   "type": "Feature",
   "geometry": {
    "type": "Point",
    "coordinates": [
     72.86671,
     19.040189
    ]
   },
   "properties": {
    "name": "Pratiksha Nagar",
    "category": "chronic_spot",
    "category_label": "Chronic flooding spot (BMC DM register)",
    "bmc_type": "Chronic Flooding Spot",
    "location": "Saradar Nagar Road no 1,Near Railway East-West Pubilc Bridge,Pratiksha Nagar,Mumbai,400022",
    "ward": "F/N",
    "feature_id": "FS06000000004",
    "aws_station_id": "WS18164500016"
   }
  },
  {
   "type": "Feature",
   "geometry": {
    "type": "Point",
    "coordinates": [
     72.85624,
     19.201972
    ]
   },
   "properties": {
    "name": "Akurli Road, Near Thakur House, Kandivali (E)",
    "category": "chronic_spot",
    "category_label": "Chronic flooding spot (BMC DM register)",
    "bmc_type": "Chronic Flooding Spot",
    "location": "Akurli Road, Near Thakur House, Kandivali (E)",
    "ward": "R/S",
    "feature_id": "FS23000000023",
    "aws_station_id": "WS17350400052"
   }
  },
  {
   "type": "Feature",
   "geometry": {
    "type": "Point",
    "coordinates": [
     72.829687,
     19.208776
    ]
   },
   "properties": {
    "name": "MG Road upto Hindusthan Naka",
    "category": "chronic_spot",
    "category_label": "Chronic flooding spot (BMC DM register)",
    "bmc_type": "Chronic Flooding Spot",
    "location": "MG Road upto Hindusthan Naka",
    "ward": "R/S",
    "feature_id": "FS23000000024",
    "aws_station_id": "WS14340400046"
   }
  },
  {
   "type": "Feature",
   "geometry": {
    "type": "Point",
    "coordinates": [
     72.829357,
     19.203723
    ]
   },
   "properties": {
    "name": "Ganesh Nagar , 60 ft DP Road",
    "category": "chronic_spot",
    "category_label": "Chronic flooding spot (BMC DM register)",
    "bmc_type": "Chronic Flooding Spot",
    "location": "Ganesh Nagar , 60 ft DP Road",
    "ward": "R/S",
    "feature_id": "FS23000000025",
    "aws_station_id": "WS14340400046"
   }
  },
  {
   "type": "Feature",
   "geometry": {
    "type": "Point",
    "coordinates": [
     72.837131,
     19.206774
    ]
   },
   "properties": {
    "name": "Dahanukar Wadi Cemetry Road, Kandivali (W)",
    "category": "chronic_spot",
    "category_label": "Chronic flooding spot (BMC DM register)",
    "bmc_type": "Chronic Flooding Spot",
    "location": "Dahanukar Wadi Cemetry Road, Kandivali (W)",
    "ward": "R/S",
    "feature_id": "FS23000000021",
    "aws_station_id": "WS17350400052"
   }
  },
  {
   "type": "Feature",
   "geometry": {
    "type": "Point",
    "coordinates": [
     72.865146,
     19.232352
    ]
   },
   "properties": {
    "name": "Abhinav Nagar, Shri krishna Nagar, National Park",
    "category": "flooding_spot",
    "category_label": "Flooding Spot (BMC DM register)",
    "bmc_type": "Flooding Spot",
    "location": "Shri krishna Nagar Road, Near Fab The Gym, Borivali, Mumbai, 400066",
    "ward": "R/C",
    "feature_id": "FS24000000013",
    "aws_station_id": "WS17383400050"
   }
  },
  {
   "type": "Feature",
   "geometry": {
    "type": "Point",
    "coordinates": [
     72.849986,
     19.17064
    ]
   },
   "properties": {
    "name": "Pandurang wadi 2",
    "category": "chronic_spot",
    "category_label": "Chronic flooding spot (BMC DM register)",
    "bmc_type": "Chronic Flooding Spot",
    "location": "Jai Sadguru Banglow, Road No 2, Opp Jivan Smruti Building, Goregaon, Mumbai, 400065",
    "ward": "P/S",
    "feature_id": "FS13000000010",
    "aws_station_id": "WS18320000045"
   }
  },
  {
   "type": "Feature",
   "geometry": {
    "type": "Point",
    "coordinates": [
     72.813155,
     18.961939
    ]
   },
   "properties": {
    "name": "Nana Chowk",
    "category": "chronic_spot",
    "category_label": "Chronic flooding spot (BMC DM register)",
    "bmc_type": "Chronic Flooding Spot",
    "location": "Nana Chowk Road,Near Municipal Building,Sandhurst Road,Mumbai,400007",
    "ward": "D",
    "feature_id": "FS04000000004",
    "aws_station_id": "WS12086500010"
   }
  },
  {
   "type": "Feature",
   "geometry": {
    "type": "Point",
    "coordinates": [
     72.841886,
     19.062976
    ]
   },
   "properties": {
    "name": "Chamda Wadi Nala",
    "category": "flooding_spot",
    "category_label": "Flooding Spot (BMC DM register)",
    "bmc_type": "Flooding Spot",
    "location": "Bandra Station Road,Near Bandra Terminal,Chamda Wadi, Bandra,Mumbai,400029",
    "ward": "H/E",
    "feature_id": "FS21000000011",
    "aws_station_id": "WS15181900028"
   }
  },
  {
   "type": "Feature",
   "geometry": {
    "type": "Point",
    "coordinates": [
     72.828571,
     19.229715
    ]
   },
   "properties": {
    "name": "Garai Dispesary",
    "category": "chronic_spot",
    "category_label": "Chronic flooding spot (BMC DM register)",
    "bmc_type": "Chronic Flooding Spot",
    "location": "Garai Dispesary Gorai 1 Borivali W",
    "ward": "R/C",
    "feature_id": "FS24000000030",
    "aws_station_id": "WS15388100049"
   }
  },
  {
   "type": "Feature",
   "geometry": {
    "type": "Point",
    "coordinates": [
     72.846355,
     19.246667
    ]
   },
   "properties": {
    "name": "IC Colony (Pearl Apartment)",
    "category": "chronic_spot",
    "category_label": "Chronic flooding spot (BMC DM register)",
    "bmc_type": "Chronic Flooding Spot",
    "location": "Road No 4,Inside Pearl Aparatment,Dahisar West,Mumbai,400068",
    "ward": "R/N",
    "feature_id": "FS14000000002",
    "aws_station_id": "WS17383400050"
   }
  },
  {
   "type": "Feature",
   "geometry": {
    "type": "Point",
    "coordinates": [
     72.836563,
     19.079736
    ]
   },
   "properties": {
    "name": "Jain Derasar Rd",
    "category": "chronic_spot",
    "category_label": "Chronic flooding spot (BMC DM register)",
    "bmc_type": "Chronic Flooding Spot",
    "location": "Santacruz West, Mumbai,",
    "ward": "H/W",
    "feature_id": "FS10000000057",
    "aws_station_id": "WS16221900030"
   }
  },
  {
   "type": "Feature",
   "geometry": {
    "type": "Point",
    "coordinates": [
     72.864477,
     19.051176
    ]
   },
   "properties": {
    "name": "Naik Nagar, Kali Bharni,Qadri Masjid",
    "category": "chronic_spot",
    "category_label": "Chronic flooding spot (BMC DM register)",
    "bmc_type": "Chronic Flooding Spot",
    "location": "Naik Nagar, Kali Bharni, Ward no. 183, Qadri Masjid",
    "ward": "G/N",
    "feature_id": "FS08000000041",
    "aws_station_id": "WS16165900020"
   }
  },
  {
   "type": "Feature",
   "geometry": {
    "type": "Point",
    "coordinates": [
     72.867444,
     19.112211
    ]
   },
   "properties": {
    "name": "A K Road, Kohinoor Junction",
    "category": "flooding_spot",
    "category_label": "Flooding Spot (BMC DM register)",
    "bmc_type": "Flooding Spot",
    "location": "Andheri Kurla Road, Near J B Nagar Metro Station, Andheri East, Mumbai, 400059",
    "ward": "K/E",
    "feature_id": "FS11000000021",
    "aws_station_id": "WS19247700031"
   }
  },
  {
   "type": "Feature",
   "geometry": {
    "type": "Point",
    "coordinates": [
     72.827661,
     18.996375
    ]
   },
   "properties": {
    "name": "Mhanaji Rajuji Chawl no, 2, Room no, 13, Sitaram Jadhav Marg, Lower Parel",
    "category": "flooding_spot",
    "category_label": "Flooding Spot (BMC DM register)",
    "bmc_type": "Flooding Spot",
    "location": "Sitaram Jadhav Marg, Near Sujata Lady Fashion, Lower Parel, Mumbai, 400013",
    "ward": "G/S",
    "feature_id": "FS09000000014",
    "aws_station_id": "WS13122100024"
   }
  },
  {
   "type": "Feature",
   "geometry": {
    "type": "Point",
    "coordinates": [
     72.849148,
     19.07698
    ]
   },
   "properties": {
    "name": "Shivaji Nagar, Vakola",
    "category": "chronic_spot",
    "category_label": "Chronic flooding spot (BMC DM register)",
    "bmc_type": "Chronic Flooding Spot",
    "location": "Shivaji Nagar Road,In Front of Siddhivinayak Flour Mill,Shivaji Nagar,  Vakola,Mumbai,400029",
    "ward": "H/E",
    "feature_id": "FS21000000007",
    "aws_station_id": "WS21000010001"
   }
  },
  {
   "type": "Feature",
   "geometry": {
    "type": "Point",
    "coordinates": [
     72.840612,
     19.075373
    ]
   },
   "properties": {
    "name": "Khar Subway",
    "category": "subway",
    "category_label": "Flood-prone subway (Chronic Flooding Spot, BMC DM register)",
    "bmc_type": "Chronic Flooding Spot",
    "location": "Khar Subway,Near Khar Subway,Khar,Mumbai,400029",
    "ward": "H/E",
    "feature_id": "FS21000000010",
    "aws_station_id": "WS21000010001"
   }
  },
  {
   "type": "Feature",
   "geometry": {
    "type": "Point",
    "coordinates": [
     72.842625,
     19.009503
    ]
   },
   "properties": {
    "name": "Hindmata To Madkebuva Chowk",
    "category": "chronic_spot",
    "category_label": "Chronic flooding spot (BMC DM register)",
    "bmc_type": "Chronic Flooding Spot",
    "location": "Dr Babasaheb Ambedkar Road,Opp Parsha Store,Dadar East,Mumbai,400014",
    "ward": "F/S",
    "feature_id": "FS07000000011",
    "aws_station_id": "WS15135300019"
   }
  },
  {
   "type": "Feature",
   "geometry": {
    "type": "Point",
    "coordinates": [
     72.937549,
     19.165966
    ]
   },
   "properties": {
    "name": "Nirmal Lifestyle",
    "category": "chronic_spot",
    "category_label": "Chronic flooding spot (BMC DM register)",
    "bmc_type": "Chronic Flooding Spot",
    "location": "Lal Bahadur Shastri Marg, , Mulund West, Mumbai, 400080",
    "ward": "T",
    "feature_id": "FS19000000032",
    "aws_station_id": "WS26316900058"
   }
  },
  {
   "type": "Feature",
   "geometry": {
    "type": "Point",
    "coordinates": [
     72.86688,
     19.040043
    ]
   },
   "properties": {
    "name": "Shivaji Chowk Pratiksha Nagar",
    "category": "chronic_spot",
    "category_label": "Chronic flooding spot (BMC DM register)",
    "bmc_type": "Chronic Flooding Spot",
    "location": "Pratiksha Nagar Road,Near Dada Saheb Gayakwad Nagar,Sion,Mumbai,400022",
    "ward": "F/N",
    "feature_id": "FS06000000005",
    "aws_station_id": "WS18164500016"
   }
  },
  {
   "type": "Feature",
   "geometry": {
    "type": "Point",
    "coordinates": [
     72.856498,
     19.024772
    ]
   },
   "properties": {
    "name": "Dadar T T Khodadad Circle",
    "category": "chronic_spot",
    "category_label": "Chronic flooding spot (BMC DM register)",
    "bmc_type": "Chronic Flooding Spot",
    "location": "Tilak Road,Near Dadar TT,Dadar East,Mumbai,400019",
    "ward": "F/N",
    "feature_id": "FS06000000022",
    "aws_station_id": "WS17151900017"
   }
  },
  {
   "type": "Feature",
   "geometry": {
    "type": "Point",
    "coordinates": [
     72.848752,
     19.017135
    ]
   },
   "properties": {
    "name": "Dadar TT Near BEST Office Tilak road junction",
    "category": "chronic_spot",
    "category_label": "Chronic flooding spot (BMC DM register)",
    "bmc_type": "Chronic Flooding Spot",
    "location": "Tilak Road, Behiend BEST Office Oppsite Light Pol No MJJ 1, Dadar TT, Mumbai, 400014",
    "ward": "F/N",
    "feature_id": "FS06000000035",
    "aws_station_id": "WS15159300021"
   }
  },
  {
   "type": "Feature",
   "geometry": {
    "type": "Point",
    "coordinates": [
     72.85887,
     19.016988
    ]
   },
   "properties": {
    "name": "Wadala railway station",
    "category": "chronic_spot",
    "category_label": "Chronic flooding spot (BMC DM register)",
    "bmc_type": "Chronic Flooding Spot",
    "location": "Wadala railway station",
    "ward": "F/N",
    "feature_id": "FS06000000056",
    "aws_station_id": "WS17151900017"
   }
  },
  {
   "type": "Feature",
   "geometry": {
    "type": "Point",
    "coordinates": [
     72.85441,
     19.011694
    ]
   },
   "properties": {
    "name": "Shakkar panchyayat R.A.Kidwai",
    "category": "chronic_spot",
    "category_label": "Chronic flooding spot (BMC DM register)",
    "bmc_type": "Chronic Flooding Spot",
    "location": "Shakkar panchyayat R.A.Kidwai, Mumbai",
    "ward": "F/N",
    "feature_id": "FS06000000057",
    "aws_station_id": "WS18158300015"
   }
  },
  {
   "type": "Feature",
   "geometry": {
    "type": "Point",
    "coordinates": [
     72.878711,
     19.042806
    ]
   },
   "properties": {
    "name": "Cem India Phase III",
    "category": "chronic_spot",
    "category_label": "Chronic flooding spot (BMC DM register)",
    "bmc_type": "Chronic Flooding Spot",
    "location": "Cem India, Patiksha Nagar Depot Road, Mhada Chawl, Sion East Mumbai 400022",
    "ward": "F/N",
    "feature_id": "FS19000000062",
    "aws_station_id": " "
   }
  },
  {
   "type": "Feature",
   "geometry": {
    "type": "Point",
    "coordinates": [
     72.843691,
     19.017608
    ]
   },
   "properties": {
    "name": "Dadar Railway Station",
    "category": "chronic_spot",
    "category_label": "Chronic flooding spot (BMC DM register)",
    "bmc_type": "Chronic Flooding Spot",
    "location": "Dadar Railway Station",
    "ward": "F/N",
    "feature_id": "FS06000000058",
    "aws_station_id": "WS17151900017"
   }
  },
  {
   "type": "Feature",
   "geometry": {
    "type": "Point",
    "coordinates": [
     72.857809,
     19.015917
    ]
   },
   "properties": {
    "name": "Bank of baroda R A Kidwai",
    "category": "chronic_spot",
    "category_label": "Chronic flooding spot (BMC DM register)",
    "bmc_type": "Chronic Flooding Spot",
    "location": "Bank of baroda R.A.Kidwai, Wadala",
    "ward": "F/N",
    "feature_id": "FS06000000061",
    "aws_station_id": "WS18158300015"
   }
  },
  {
   "type": "Feature",
   "geometry": {
    "type": "Point",
    "coordinates": [
     72.855837,
     19.01065
    ]
   },
   "properties": {
    "name": "Reynolds Colony",
    "category": "chronic_spot",
    "category_label": "Chronic flooding spot (BMC DM register)",
    "bmc_type": "Chronic Flooding Spot",
    "location": "Bombay Trust Road,Near Building No 3,Wadala,Mumbai,400037",
    "ward": "F/S",
    "feature_id": "FS06000000014",
    "aws_station_id": "WS13155300019"
   }
  },
  {
   "type": "Feature",
   "geometry": {
    "type": "Point",
    "coordinates": [
     72.877366,
     19.042339
    ]
   },
   "properties": {
    "name": "Cem India Phase III New",
    "category": "chronic_spot",
    "category_label": "Chronic flooding spot (BMC DM register)",
    "bmc_type": "Chronic Flooding Spot",
    "location": "Cem India, Patiksha Nagar Depot Road, Mhada Chawl, Sion East Mumbai 400022",
    "ward": "F/N",
    "feature_id": "FS19000000063",
    "aws_station_id": " "
   }
  },
  {
   "type": "Feature",
   "geometry": {
    "type": "Point",
    "coordinates": [
     72.863707,
     19.075454
    ]
   },
   "properties": {
    "name": "Sundar Nagar, Kalina",
    "category": "chronic_spot",
    "category_label": "Chronic flooding spot (BMC DM register)",
    "bmc_type": "Chronic Flooding Spot",
    "location": "Praveen Apartment,Sundar Nagar Road no 2,Inside Praveen Apartment,Sundar Nagar, Kalina,Mumbai,400029",
    "ward": "H/E",
    "feature_id": "FS21000000004",
    "aws_station_id": "WS21000010001"
   }
  },
  {
   "type": "Feature",
   "geometry": {
    "type": "Point",
    "coordinates": [
     72.859006,
     19.040993
    ]
   },
   "properties": {
    "name": "Dhobighat",
    "category": "chronic_spot",
    "category_label": "Chronic flooding spot (BMC DM register)",
    "bmc_type": "Chronic Flooding Spot",
    "location": "Mahatma Gandhi Road,Near Police Bit Chowk,Sion,Mumbai,400017",
    "ward": "G/N",
    "feature_id": "FS08000000002",
    "aws_station_id": "WS16165900020"
   }
  },
  {
   "type": "Feature",
   "geometry": {
    "type": "Point",
    "coordinates": [
     72.874392,
     19.172186
    ]
   },
   "properties": {
    "name": "Hanuman nagar",
    "category": "chronic_spot",
    "category_label": "Chronic flooding spot (BMC DM register)",
    "bmc_type": "Chronic Flooding Spot",
    "location": "Hanuman nagar, Muncipal Colony, Sector A, Goregaon",
    "ward": "P/S",
    "feature_id": "FS13000000024",
    "aws_station_id": "WS18320000045"
   }
  },
  {
   "type": "Feature",
   "geometry": {
    "type": "Point",
    "coordinates": [
     72.84418,
     19.162395
    ]
   },
   "properties": {
    "name": "Bhagyodaya society",
    "category": "chronic_spot",
    "category_label": "Chronic flooding spot (BMC DM register)",
    "bmc_type": "Chronic Flooding Spot",
    "location": ", Goregaon",
    "ward": "P/S",
    "feature_id": "FS13000000025",
    "aws_station_id": "WS16304600047"
   }
  },
  {
   "type": "Feature",
   "geometry": {
    "type": "Point",
    "coordinates": [
     72.874326,
     19.157769
    ]
   },
   "properties": {
    "name": "Aarey Road",
    "category": "chronic_spot",
    "category_label": "Chronic flooding spot (BMC DM register)",
    "bmc_type": "Chronic Flooding Spot",
    "location": "Aarey Road, Mumbai, Mumbai Suburban",
    "ward": "P/S",
    "feature_id": "FS13000000026",
    "aws_station_id": "WS10000010073"
   }
  },
  {
   "type": "Feature",
   "geometry": {
    "type": "Point",
    "coordinates": [
     72.841336,
     19.17125
    ]
   },
   "properties": {
    "name": "Near Riddhi Siddhi Nalla",
    "category": "chronic_spot",
    "category_label": "Chronic flooding spot (BMC DM register)",
    "bmc_type": "Chronic Flooding Spot",
    "location": "Near Riddhi Siddhi Nalla,Arun Kumar Vaidya Marg, Goregaon (East)",
    "ward": "P/S",
    "feature_id": "FS13000000026",
    "aws_station_id": "WS15324300048"
   }
  },
  {
   "type": "Feature",
   "geometry": {
    "type": "Point",
    "coordinates": [
     72.847,
     19.181914
    ]
   },
   "properties": {
    "name": "Mamu Gully",
    "category": "chronic_spot",
    "category_label": "Chronic flooding spot (BMC DM register)",
    "bmc_type": "Chronic Flooding Spot",
    "location": "Mamu Gully",
    "ward": "P/N",
    "feature_id": "FS12000000031",
    "aws_station_id": " "
   }
  },
  {
   "type": "Feature",
   "geometry": {
    "type": "Point",
    "coordinates": [
     72.843367,
     19.222791
    ]
   },
   "properties": {
    "name": "Gawand Compound, Shimpoli",
    "category": "chronic_spot",
    "category_label": "Chronic flooding spot (BMC DM register)",
    "bmc_type": "Chronic Flooding Spot",
    "location": "Shimpoli Road, Near Parimal Bldg, Borivali, Mumbai, 400066",
    "ward": "R/C",
    "feature_id": "FS24000000017",
    "aws_station_id": "WS15388100049"
   }
  },
  {
   "type": "Feature",
   "geometry": {
    "type": "Point",
    "coordinates": [
     72.848052,
     19.236861
    ]
   },
   "properties": {
    "name": "Near Gagangiri Bldg., D D Borge Road",
    "category": "chronic_spot",
    "category_label": "Chronic flooding spot (BMC DM register)",
    "bmc_type": "Chronic Flooding Spot",
    "location": "Near Gagangiri Bldg., D D Borge Road",
    "ward": "R/C",
    "feature_id": "FS24000000025",
    "aws_station_id": "WS17383400050"
   }
  },
  {
   "type": "Feature",
   "geometry": {
    "type": "Point",
    "coordinates": [
     72.860771,
     19.25938
    ]
   },
   "properties": {
    "name": "Patilwadi",
    "category": "chronic_spot",
    "category_label": "Chronic flooding spot (BMC DM register)",
    "bmc_type": "Chronic Flooding Spot",
    "location": "Bagwe Road,Near Maidan,Dahisar West,Mumbai,400068",
    "ward": "R/N",
    "feature_id": "FS14000000001",
    "aws_station_id": "WS18402000051"
   }
  },
  {
   "type": "Feature",
   "geometry": {
    "type": "Point",
    "coordinates": [
     72.865314,
     19.257304
    ]
   },
   "properties": {
    "name": "Aanad Nagar",
    "category": "chronic_spot",
    "category_label": "Chronic flooding spot (BMC DM register)",
    "bmc_type": "Chronic Flooding Spot",
    "location": "Link Road,Near Police Chowki,Dahisar East,Mumbai,400068",
    "ward": "R/N",
    "feature_id": "FS14000000003",
    "aws_station_id": "WS18402000051"
   }
  },
  {
   "type": "Feature",
   "geometry": {
    "type": "Point",
    "coordinates": [
     72.867486,
     19.251904
    ]
   },
   "properties": {
    "name": "Rajnagar, Near Maharaja Hotel",
    "category": "chronic_spot",
    "category_label": "Chronic flooding spot (BMC DM register)",
    "bmc_type": "Chronic Flooding Spot",
    "location": "Express highway Road, Near Maharaja Hotel, Dahisar East, Mumbai, 400068",
    "ward": "R/N",
    "feature_id": "FS14000000008",
    "aws_station_id": "WS18402000051"
   }
  },
  {
   "type": "Feature",
   "geometry": {
    "type": "Point",
    "coordinates": [
     72.846728,
     19.238113
    ]
   },
   "properties": {
    "name": "D N Mhatre Road",
    "category": "chronic_spot",
    "category_label": "Chronic flooding spot (BMC DM register)",
    "bmc_type": "Chronic Flooding Spot",
    "location": "D N Mhatre Road, Borivali (W)",
    "ward": "R/C",
    "feature_id": "FS24000000026",
    "aws_station_id": "WS17383400050"
   }
  },
  {
   "type": "Feature",
   "geometry": {
    "type": "Point",
    "coordinates": [
     72.859268,
     19.229147
    ]
   },
   "properties": {
    "name": "Kasturba Main Road, Borivali(E)",
    "category": "chronic_spot",
    "category_label": "Chronic flooding spot (BMC DM register)",
    "bmc_type": "Chronic Flooding Spot",
    "location": "Kasturba Main Road, Borivali(E)",
    "ward": "R/C",
    "feature_id": "FS24000000028",
    "aws_station_id": "WS17383400050"
   }
  },
  {
   "type": "Feature",
   "geometry": {
    "type": "Point",
    "coordinates": [
     72.872105,
     19.173622
    ]
   },
   "properties": {
    "name": "Dhakad Compound",
    "category": "chronic_spot",
    "category_label": "Chronic flooding spot (BMC DM register)",
    "bmc_type": "Chronic Flooding Spot",
    "location": "Pankaj Shah Marg, Near Satellite Tower, Goregaon (East)",
    "ward": "P/S",
    "feature_id": "FS13000000025",
    "aws_station_id": "WS18320000045"
   }
  },
  {
   "type": "Feature",
   "geometry": {
    "type": "Point",
    "coordinates": [
     72.851806,
     19.029401
    ]
   },
   "properties": {
    "name": "89 Vaccharaj Lane",
    "category": "chronic_spot",
    "category_label": "Chronic flooding spot (BMC DM register)",
    "bmc_type": "Chronic Flooding Spot",
    "location": "Vaccharaj Lane, Behinend Matunga Central Railway Line Station, Matunga East, Mumbai, 400019",
    "ward": "F/N",
    "feature_id": "FS06000000049",
    "aws_station_id": "WS17151900017"
   }
  },
  {
   "type": "Feature",
   "geometry": {
    "type": "Point",
    "coordinates": [
     72.889598,
     19.053736
    ]
   },
   "properties": {
    "name": "Umarshi Bappa Chowk, Swastik Chember",
    "category": "chronic_spot",
    "category_label": "Chronic flooding spot (BMC DM register)",
    "bmc_type": "Chronic Flooding Spot",
    "location": "Hemu Kalani Marg, Near SBI Bank, Chembur West, Mumbai, 400089",
    "ward": "M/W",
    "feature_id": "FS22000000037",
    "aws_station_id": "WS21198300041"
   }
  },
  {
   "type": "Feature",
   "geometry": {
    "type": "Point",
    "coordinates": [
     72.793753,
     19.143972
    ]
   },
   "properties": {
    "name": "Ganga Bawadi 2",
    "category": "chronic_spot",
    "category_label": "Chronic flooding spot (BMC DM register)",
    "bmc_type": "Chronic Flooding Spot",
    "location": "Shivaji Nagar Road,Near Police Chowki,Malad West,Mumbai,400061",
    "ward": "P/N",
    "feature_id": "FS12000000004",
    "aws_station_id": "WS15324300048"
   }
  },
  {
   "type": "Feature",
   "geometry": {
    "type": "Point",
    "coordinates": [
     72.856721,
     19.190659
    ]
   },
   "properties": {
    "name": "Pushapa Park No 3",
    "category": "chronic_spot",
    "category_label": "Chronic flooding spot (BMC DM register)",
    "bmc_type": "Chronic Flooding Spot",
    "location": "Pushpa Park Road No 4,Near St Joseph's School,Malad East,Mumbai,400067",
    "ward": "P/N",
    "feature_id": "FS12000000005",
    "aws_station_id": "WS16330400044"
   }
  },
  {
   "type": "Feature",
   "geometry": {
    "type": "Point",
    "coordinates": [
     72.846598,
     19.186794
    ]
   },
   "properties": {
    "name": "Near Natraj Market, S V Road, Malad West",
    "category": "chronic_spot",
    "category_label": "Chronic flooding spot (BMC DM register)",
    "bmc_type": "Chronic Flooding Spot",
    "location": "S V Road, Near Natraj Market, Malad, Mumbai, 400064",
    "ward": "P/N",
    "feature_id": "FS12000000013",
    "aws_station_id": "WS16330400044"
   }
  },
  {
   "type": "Feature",
   "geometry": {
    "type": "Point",
    "coordinates": [
     72.825939,
     18.957994
    ]
   },
   "properties": {
    "name": "Gol Deval Alankar Cinema Junction",
    "category": "chronic_spot",
    "category_label": "Chronic flooding spot (BMC DM register)",
    "bmc_type": "Chronic Flooding Spot",
    "location": "S V P Road, Near Alankar Cinema, Kumbharwada, Mumbai, 400004",
    "ward": "C",
    "feature_id": "FS03000000003",
    "aws_station_id": "WS14081400013"
   }
  },
  {
   "type": "Feature",
   "geometry": {
    "type": "Point",
    "coordinates": [
     72.822995,
     18.974304
    ]
   },
   "properties": {
    "name": "Gate no 4, Nair Hospital, Murzban Colony",
    "category": "chronic_spot",
    "category_label": "Chronic flooding spot (BMC DM register)",
    "bmc_type": "Chronic Flooding Spot",
    "location": "Dr Android Nair Marg, Near Murzban Colony, Mumbai Central, Mumbai, 400008",
    "ward": "E",
    "feature_id": "FS05000000012",
    "aws_station_id": "WS13095500012"
   }
  },
  {
   "type": "Feature",
   "geometry": {
    "type": "Point",
    "coordinates": [
     72.82188,
     18.97554
    ]
   },
   "properties": {
    "name": "Patra Chwal, Ghas Bazar",
    "category": "chronic_spot",
    "category_label": "Chronic flooding spot (BMC DM register)",
    "bmc_type": "Chronic Flooding Spot",
    "location": "Sane Guruji Marg, Near Bal Gopal Mitra Mandal, Agripada, Mumbai, 400008",
    "ward": "E",
    "feature_id": "FS05000000010",
    "aws_station_id": "WS13095500012"
   }
  },
  {
   "type": "Feature",
   "geometry": {
    "type": "Point",
    "coordinates": [
     72.846403,
     19.123306
    ]
   },
   "properties": {
    "name": "Andheri Market S.V. Road",
    "category": "chronic_spot",
    "category_label": "Chronic flooding spot (BMC DM register)",
    "bmc_type": "Chronic Flooding Spot",
    "location": "Andheri Market S.V. Road",
    "ward": "K/W",
    "feature_id": "FS20000000061",
    "aws_station_id": "WS16252800034"
   }
  },
  {
   "type": "Feature",
   "geometry": {
    "type": "Point",
    "coordinates": [
     72.837038,
     19.007313
    ]
   },
   "properties": {
    "name": "Parel Station East J B Road, Elphinstone East/W",
    "category": "chronic_spot",
    "category_label": "Chronic flooding spot (BMC DM register)",
    "bmc_type": "Chronic Flooding Spot",
    "location": "Jagannath Batankar Road,Opp Parel Station East,Parel East,Mumbai,400012",
    "ward": "F/S",
    "feature_id": "FS07000000007",
    "aws_station_id": "WS15135300019"
   }
  },
  {
   "type": "Feature",
   "geometry": {
    "type": "Point",
    "coordinates": [
     72.836923,
     19.081175
    ]
   },
   "properties": {
    "name": "Poddar High shool, Jain Girasan, Premkothi Building, Santacruz West",
    "category": "flooding_spot",
    "category_label": "Flooding Spot (BMC DM register)",
    "bmc_type": "Flooding Spot",
    "location": "Saraswati Marg, Near Poddar Education Complex, Santacruz, Mumbai, 400054",
    "ward": "H/W",
    "feature_id": "FS10000000022",
    "aws_station_id": "WS16221900030"
   }
  },
  {
   "type": "Feature",
   "geometry": {
    "type": "Point",
    "coordinates": [
     72.863919,
     19.233119
    ]
   },
   "properties": {
    "name": "Shri Krishna Nagar Bridge WEH, Borivali (E)",
    "category": "chronic_spot",
    "category_label": "Chronic flooding spot (BMC DM register)",
    "bmc_type": "Chronic Flooding Spot",
    "location": "Shri Krishna Nagar Bridge WEH, Borivali (E)",
    "ward": "R/N",
    "feature_id": "FS14000000025",
    "aws_station_id": " "
   }
  },
  {
   "type": "Feature",
   "geometry": {
    "type": "Point",
    "coordinates": [
     72.791462,
     19.141613
    ]
   },
   "properties": {
    "name": "Maamu Gally",
    "category": "flooding_spot",
    "category_label": "Flooding Spot (BMC DM register)",
    "bmc_type": "Flooding Spot",
    "location": "Maamu Gally Road,Near Shree Krishna Society,Malad West,Mumbai,400061",
    "ward": "K/W",
    "feature_id": "FS20000000002",
    "aws_station_id": "WS10000010077"
   }
  },
  {
   "type": "Feature",
   "geometry": {
    "type": "Point",
    "coordinates": [
     72.861783,
     19.043503
    ]
   },
   "properties": {
    "name": "Mukhyadhpak Bhavan",
    "category": "chronic_spot",
    "category_label": "Chronic flooding spot (BMC DM register)",
    "bmc_type": "Chronic Flooding Spot",
    "location": "Road No 26,Near SBI Bank,Sion,Mumbai,400022",
    "ward": "F/N",
    "feature_id": "FS06000000024",
    "aws_station_id": "WS18164500016"
   }
  },
  {
   "type": "Feature",
   "geometry": {
    "type": "Point",
    "coordinates": [
     72.862947,
     19.176864
    ]
   },
   "properties": {
    "name": "Lotus Building",
    "category": "chronic_spot",
    "category_label": "Chronic flooding spot (BMC DM register)",
    "bmc_type": "Chronic Flooding Spot",
    "location": "Vasant Valley Complex, Malad East",
    "ward": "P/N",
    "feature_id": "FS12000000022",
    "aws_station_id": "WS18320000045"
   }
  },
  {
   "type": "Feature",
   "geometry": {
    "type": "Point",
    "coordinates": [
     72.849889,
     19.189455
    ]
   },
   "properties": {
    "name": "Patkarwadi",
    "category": "chronic_spot",
    "category_label": "Chronic flooding spot (BMC DM register)",
    "bmc_type": "Chronic Flooding Spot",
    "location": "Manchubhai Road, Malad (East)",
    "ward": "P/N",
    "feature_id": "FS12000000024",
    "aws_station_id": "WS16330400044"
   }
  },
  {
   "type": "Feature",
   "geometry": {
    "type": "Point",
    "coordinates": [
     72.862322,
     19.19045
    ]
   },
   "properties": {
    "name": "Kurar Nalla Tanaji Nagar Malad (E)",
    "category": "chronic_spot",
    "category_label": "Chronic flooding spot (BMC DM register)",
    "bmc_type": "Chronic Flooding Spot",
    "location": "Kurar Nalla Tanaji Nagar Malad (E)",
    "ward": "P/N",
    "feature_id": "FS12000000029",
    "aws_station_id": "WS18320000045"
   }
  },
  {
   "type": "Feature",
   "geometry": {
    "type": "Point",
    "coordinates": [
     72.840222,
     19.187172
    ]
   },
   "properties": {
    "name": "Liberty Garden",
    "category": "chronic_spot",
    "category_label": "Chronic flooding spot (BMC DM register)",
    "bmc_type": "Chronic Flooding Spot",
    "location": "Liberty Garden, Malad West, Mumbai, Maharashtra",
    "ward": "P/N",
    "feature_id": "FS12000000026",
    "aws_station_id": "WS16330400044"
   }
  },
  {
   "type": "Feature",
   "geometry": {
    "type": "Point",
    "coordinates": [
     72.866236,
     19.188001
    ]
   },
   "properties": {
    "name": "Aapaa Pada (Raviya Budhiya Chawl)",
    "category": "chronic_spot",
    "category_label": "Chronic flooding spot (BMC DM register)",
    "bmc_type": "Chronic Flooding Spot",
    "location": "Shivaji Nagar Road,Near BMC Garden,Malad East,Mumbai,400061",
    "ward": "P/N",
    "feature_id": "FS12000000003",
    "aws_station_id": "WS18320000045"
   }
  },
  {
   "type": "Feature",
   "geometry": {
    "type": "Point",
    "coordinates": [
     72.836404,
     19.070013
    ]
   },
   "properties": {
    "name": "Junction of 7th Road & 11th Road",
    "category": "chronic_spot",
    "category_label": "Chronic flooding spot (BMC DM register)",
    "bmc_type": "Chronic Flooding Spot",
    "location": "11th Road, Near Dada Gobind Malhi Chowk, Khar, Mumbai, 400052",
    "ward": "H/W",
    "feature_id": "FS10000000028",
    "aws_station_id": "WS15183200027"
   }
  },
  {
   "type": "Feature",
   "geometry": {
    "type": "Point",
    "coordinates": [
     72.842512,
     18.957412
    ]
   },
   "properties": {
    "name": "Junction of P D ‘Mello Road & S.V.P. Road",
    "category": "chronic_spot",
    "category_label": "Chronic flooding spot (BMC DM register)",
    "bmc_type": "Chronic Flooding Spot",
    "location": "Junction of P D ‘Mello Road & S.V.P. Road",
    "ward": "B",
    "feature_id": "FS02000000013",
    "aws_station_id": "WS14068100003"
   }
  },
  {
   "type": "Feature",
   "geometry": {
    "type": "Point",
    "coordinates": [
     72.838199,
     18.95253
    ]
   },
   "properties": {
    "name": "Masjid Bunder Railway Track in B ward",
    "category": "chronic_spot",
    "category_label": "Chronic flooding spot (BMC DM register)",
    "bmc_type": "Chronic Flooding Spot",
    "location": "Masjid Bunder Railway Track in B ward",
    "ward": "B",
    "feature_id": "FS02000000014",
    "aws_station_id": "WS14068100003"
   }
  },
  {
   "type": "Feature",
   "geometry": {
    "type": "Point",
    "coordinates": [
     72.887097,
     19.053815
    ]
   },
   "properties": {
    "name": "Surana Hospital",
    "category": "chronic_spot",
    "category_label": "Chronic flooding spot (BMC DM register)",
    "bmc_type": "Chronic Flooding Spot",
    "location": "Surana Hospital, Chagan Petrol pump, V.N. Purav marg",
    "ward": "M/W",
    "feature_id": "FS22000000044",
    "aws_station_id": "WS21198300041"
   }
  },
  {
   "type": "Feature",
   "geometry": {
    "type": "Point",
    "coordinates": [
     72.893367,
     19.058981
    ]
   },
   "properties": {
    "name": "Postal Colony, Chembur",
    "category": "chronic_spot",
    "category_label": "Chronic flooding spot (BMC DM register)",
    "bmc_type": "Chronic Flooding Spot",
    "location": "Postal Colony, Chembur",
    "ward": "M/W",
    "feature_id": "FS22000000045",
    "aws_station_id": "WS21198300041"
   }
  },
  {
   "type": "Feature",
   "geometry": {
    "type": "Point",
    "coordinates": [
     72.916829,
     19.098065
    ]
   },
   "properties": {
    "name": "Rcity Mall Ghatkopar West",
    "category": "chronic_spot",
    "category_label": "Chronic flooding spot (BMC DM register)",
    "bmc_type": "Chronic Flooding Spot",
    "location": "Lal Bahdurshastri Road, In Writeside Of Rcity Mall, Ghatkopar West, Mumbai, 400086",
    "ward": "N",
    "feature_id": "FS17000000016",
    "aws_station_id": "WS23239700056"
   }
  },
  {
   "type": "Feature",
   "geometry": {
    "type": "Point",
    "coordinates": [
     72.897369,
     19.077645
    ]
   },
   "properties": {
    "name": "Near ONGC Colony, Vidyavihar",
    "category": "chronic_spot",
    "category_label": "Chronic flooding spot (BMC DM register)",
    "bmc_type": "Chronic Flooding Spot",
    "location": "Near ONGC Colony, Vidyavihar (E)",
    "ward": "N",
    "feature_id": "FS17000000020",
    "aws_station_id": "WS22217800043"
   }
  },
  {
   "type": "Feature",
   "geometry": {
    "type": "Point",
    "coordinates": [
     72.897614,
     19.075357
    ]
   },
   "properties": {
    "name": "Shatri Nagar Vidyavihar East",
    "category": "chronic_spot",
    "category_label": "Chronic flooding spot (BMC DM register)",
    "bmc_type": "Chronic Flooding Spot",
    "location": "Rajawadi Road, In Frontside Of Shatrinagar CHS Vidyavehar, Vidyvihar East, Mumbai, 400077",
    "ward": "N",
    "feature_id": "FS17000000017",
    "aws_station_id": "WS22217800043"
   }
  },
  {
   "type": "Feature",
   "geometry": {
    "type": "Point",
    "coordinates": [
     72.896619,
     19.111277
    ]
   },
   "properties": {
    "name": "Chandivali MHADA Colony, Sakinaka Police Station, Kurla(W)",
    "category": "chronic_spot",
    "category_label": "Chronic flooding spot (BMC DM register)",
    "bmc_type": "Chronic Flooding Spot",
    "location": "Chandivali MHADA Colony, Sakinaka Police Station, Kurla(W)",
    "ward": "L",
    "feature_id": "FS15000000054",
    "aws_station_id": "WS20215900036"
   }
  },
  {
   "type": "Feature",
   "geometry": {
    "type": "Point",
    "coordinates": [
     72.838073,
     19.082714
    ]
   },
   "properties": {
    "name": "Tilak Rd Jn",
    "category": "chronic_spot",
    "category_label": "Chronic flooding spot (BMC DM register)",
    "bmc_type": "Chronic Flooding Spot",
    "location": "Railway Colony, Santacruz West",
    "ward": "H/W",
    "feature_id": "FS10000000056",
    "aws_station_id": "WS16221900030"
   }
  },
  {
   "type": "Feature",
   "geometry": {
    "type": "Point",
    "coordinates": [
     72.837997,
     19.052781
    ]
   },
   "properties": {
    "name": "Opp Saiba Hotel",
    "category": "chronic_spot",
    "category_label": "Chronic flooding spot (BMC DM register)",
    "bmc_type": "Chronic Flooding Spot",
    "location": "Shop No 1 & 2, Zarina CHS, Swami Vivekananda Rd, Bandra West, Mumbai, Maharashtra 400050",
    "ward": "H/W",
    "feature_id": "FS10000000058",
    "aws_station_id": "WS15183200027"
   }
  },
  {
   "type": "Feature",
   "geometry": {
    "type": "Point",
    "coordinates": [
     72.831069,
     19.0731
    ]
   },
   "properties": {
    "name": "Junction of C D Marg, 16th Road",
    "category": "chronic_spot",
    "category_label": "Chronic flooding spot (BMC DM register)",
    "bmc_type": "Chronic Flooding Spot",
    "location": "Khar Danda Road, Near National Dry Fruit, Khar West, Mumbai, 400052",
    "ward": "H/W",
    "feature_id": "FS10000000047",
    "aws_station_id": "WS15181900028"
   }
  },
  {
   "type": "Feature",
   "geometry": {
    "type": "Point",
    "coordinates": [
     72.837807,
     19.084202
    ]
   },
   "properties": {
    "name": "Green Street Nalla 1",
    "category": "chronic_spot",
    "category_label": "Chronic flooding spot (BMC DM register)",
    "bmc_type": "Chronic Flooding Spot",
    "location": "Juhu Tara Road,Near 1969 Clothing Company,Bandra West,Mumbai,400050",
    "ward": "H/W",
    "feature_id": "FS10000000002",
    "aws_station_id": "WS16221900030"
   }
  },
  {
   "type": "Feature",
   "geometry": {
    "type": "Point",
    "coordinates": [
     72.837206,
     19.111512
    ]
   },
   "properties": {
    "name": "Irla Masjid & Juhu Junction",
    "category": "chronic_spot",
    "category_label": "Chronic flooding spot (BMC DM register)",
    "bmc_type": "Chronic Flooding Spot",
    "location": "Irla Masjid & Juhu Junction",
    "ward": "K/W",
    "feature_id": "FS20000000055",
    "aws_station_id": "WS15258000033"
   }
  },
  {
   "type": "Feature",
   "geometry": {
    "type": "Point",
    "coordinates": [
     72.865451,
     19.139123
    ]
   },
   "properties": {
    "name": "Majjas Depot JVLR",
    "category": "chronic_spot",
    "category_label": "Chronic flooding spot (BMC DM register)",
    "bmc_type": "Chronic Flooding Spot",
    "location": "Shyam Nagar, Jogeshwari East, Mumbai, Maharashtra 400093",
    "ward": "K/E",
    "feature_id": "FS11000000047",
    "aws_station_id": "WS10000010073"
   }
  },
  {
   "type": "Feature",
   "geometry": {
    "type": "Point",
    "coordinates": [
     72.854844,
     19.140776
    ]
   },
   "properties": {
    "name": "Western Express Highway and JVLR Junction",
    "category": "chronic_spot",
    "category_label": "Chronic flooding spot (BMC DM register)",
    "bmc_type": "Chronic Flooding Spot",
    "location": "SRPS Gate No.1, Western Express Highway, Pratap Nagar, Andheri (East)",
    "ward": "K/E",
    "feature_id": "FS11000000049",
    "aws_station_id": "WS10000010073"
   }
  },
  {
   "type": "Feature",
   "geometry": {
    "type": "Point",
    "coordinates": [
     72.857885,
     19.102588
    ]
   },
   "properties": {
    "name": "Subway on M C Chagala Marg, Below T2 Elevated Road",
    "category": "subway",
    "category_label": "Flood-prone subway (Chronic Flooding Spot, BMC DM register)",
    "bmc_type": "Chronic Flooding Spot",
    "location": "Chakala Road, Opposite P S General Store, Andheri East, Mumbai, 400099",
    "ward": "K/E",
    "feature_id": "FS11000000026",
    "aws_station_id": "WS16221900029"
   }
  },
  {
   "type": "Feature",
   "geometry": {
    "type": "Point",
    "coordinates": [
     72.878621,
     19.108584
    ]
   },
   "properties": {
    "name": "Andheri Kurla Road, Marol Naka Metro Station",
    "category": "chronic_spot",
    "category_label": "Chronic flooding spot (BMC DM register)",
    "bmc_type": "Chronic Flooding Spot",
    "location": "Andheri Kurla Road, Near Concord Galaxy, Andheri East, Mumbai, 400059",
    "ward": "K/E",
    "feature_id": "FS11000000015",
    "aws_station_id": "WS19247700031"
   }
  },
  {
   "type": "Feature",
   "geometry": {
    "type": "Point",
    "coordinates": [
     72.837845,
     19.129356
    ]
   },
   "properties": {
    "name": "Noble Medical near Veera Desai Road",
    "category": "chronic_spot",
    "category_label": "Chronic flooding spot (BMC DM register)",
    "bmc_type": "Chronic Flooding Spot",
    "location": "A-57, Veera Desai Rd, Dattaguru Nagar, Ambivali, Jogeshwari West, Mumbai, Maharashtra 400053",
    "ward": "K/W",
    "feature_id": "FS20000000059",
    "aws_station_id": "WS10000010077"
   }
  },
  {
   "type": "Feature",
   "geometry": {
    "type": "Point",
    "coordinates": [
     72.839419,
     19.114326
    ]
   },
   "properties": {
    "name": "Juhu Gully",
    "category": "chronic_spot",
    "category_label": "Chronic flooding spot (BMC DM register)",
    "bmc_type": "Chronic Flooding Spot",
    "location": "Juhu Gully",
    "ward": "K/W",
    "feature_id": "FS20000000062",
    "aws_station_id": "WS15258000033"
   }
  },
  {
   "type": "Feature",
   "geometry": {
    "type": "Point",
    "coordinates": [
     72.842685,
     19.114955
    ]
   },
   "properties": {
    "name": "Irla Jn,S.V. Road Ajit Glass Jn",
    "category": "chronic_spot",
    "category_label": "Chronic flooding spot (BMC DM register)",
    "bmc_type": "Chronic Flooding Spot",
    "location": "Irla Jn,S.V. Road Ajit Glass Jn",
    "ward": "K/W",
    "feature_id": "FS20000000063",
    "aws_station_id": "WS15258000033"
   }
  },
  {
   "type": "Feature",
   "geometry": {
    "type": "Point",
    "coordinates": [
     72.83492,
     19.140128
    ]
   },
   "properties": {
    "name": "Rehab Building, Veera Desai Road",
    "category": "chronic_spot",
    "category_label": "Chronic flooding spot (BMC DM register)",
    "bmc_type": "Chronic Flooding Spot",
    "location": "Rehab Building, Veera Desai Industrial Estate, Andheri West",
    "ward": "K/W",
    "feature_id": "FS20000000065",
    "aws_station_id": "WS10000010077"
   }
  },
  {
   "type": "Feature",
   "geometry": {
    "type": "Point",
    "coordinates": [
     72.841739,
     19.14415
    ]
   },
   "properties": {
    "name": "Singh Compound,",
    "category": "chronic_spot",
    "category_label": "Chronic flooding spot (BMC DM register)",
    "bmc_type": "Chronic Flooding Spot",
    "location": "Behram baug road, Jogeshwari West,",
    "ward": "K/W",
    "feature_id": "FS20000000066",
    "aws_station_id": "WS16252800034"
   }
  },
  {
   "type": "Feature",
   "geometry": {
    "type": "Point",
    "coordinates": [
     72.838587,
     19.122301
    ]
   },
   "properties": {
    "name": "Ila Darshan",
    "category": "chronic_spot",
    "category_label": "Chronic flooding spot (BMC DM register)",
    "bmc_type": "Chronic Flooding Spot",
    "location": "Gilbert Hill Road, Juhu, Andheri (West)",
    "ward": "K/W",
    "feature_id": "FS20000000067",
    "aws_station_id": "WS16252800034"
   }
  },
  {
   "type": "Feature",
   "geometry": {
    "type": "Point",
    "coordinates": [
     72.808675,
     19.138021
    ]
   },
   "properties": {
    "name": "Priti Apartmen Near Versova Cemetry",
    "category": "chronic_spot",
    "category_label": "Chronic flooding spot (BMC DM register)",
    "bmc_type": "Chronic Flooding Spot",
    "location": "Yari Rd, Sai Nagar, Versova, Andheri West,",
    "ward": "K/W",
    "feature_id": "FS20000000068",
    "aws_station_id": "WS10000010077"
   }
  },
  {
   "type": "Feature",
   "geometry": {
    "type": "Point",
    "coordinates": [
     72.827973,
     19.134098
    ]
   },
   "properties": {
    "name": "Teacher Colony",
    "category": "chronic_spot",
    "category_label": "Chronic flooding spot (BMC DM register)",
    "bmc_type": "Chronic Flooding Spot",
    "location": "RTO Lane,Building No 64,Andheri West,Mumbai,400053",
    "ward": "K/W",
    "feature_id": "FS20000000012",
    "aws_station_id": "WS10000010077"
   }
  },
  {
   "type": "Feature",
   "geometry": {
    "type": "Point",
    "coordinates": [
     72.824382,
     18.976853
    ]
   },
   "properties": {
    "name": "Prabha Sadan Bldg",
    "category": "chronic_spot",
    "category_label": "Chronic flooding spot (BMC DM register)",
    "bmc_type": "Chronic Flooding Spot",
    "location": "Opp Argipada Police station, R B Chadorkar Marg, Byculla",
    "ward": "E",
    "feature_id": "FS05000000033",
    "aws_station_id": "WS13095500012"
   }
  },
  {
   "type": "Feature",
   "geometry": {
    "type": "Point",
    "coordinates": [
     72.911453,
     19.060857
    ]
   },
   "properties": {
    "name": "P L Lokhande Marg, Mukund Nagar, Chembur (West)",
    "category": "chronic_spot",
    "category_label": "Chronic flooding spot (BMC DM register)",
    "bmc_type": "Chronic Flooding Spot",
    "location": "P L Lokhande Marg, Mukund Nagar, Chembur (West)",
    "ward": "M/E",
    "feature_id": "FS16000000039",
    "aws_station_id": "WS24182800039"
   }
  },
  {
   "type": "Feature",
   "geometry": {
    "type": "Point",
    "coordinates": [
     72.842127,
     19.190275
    ]
   },
   "properties": {
    "name": "Malad Subway 1",
    "category": "subway",
    "category_label": "Flood-prone subway (Flooding Spot, BMC DM register)",
    "bmc_type": "Flooding Spot",
    "location": "Malad Subway,Near Traffic Police Chowki,Malad West,Mumbai,400067",
    "ward": "P/N",
    "feature_id": "FS12000000001",
    "aws_station_id": "WS16330400044"
   }
  },
  {
   "type": "Feature",
   "geometry": {
    "type": "Point",
    "coordinates": [
     72.893859,
     19.050319
    ]
   },
   "properties": {
    "name": "Opp Chagan Mitha Petroal Pump, Surana hospital, Chunabhatti West",
    "category": "flooding_spot",
    "category_label": "Flooding Spot (BMC DM register)",
    "bmc_type": "Flooding Spot",
    "location": "Bhakti Bhavan Marg, Opp Chagan Mitha Petrol Pump, Chembur, Mumbai, 400071",
    "ward": "M/W",
    "feature_id": "FS22000000016",
    "aws_station_id": "WS21198300041"
   }
  },
  {
   "type": "Feature",
   "geometry": {
    "type": "Point",
    "coordinates": [
     72.83882,
     19.064416
    ]
   },
   "properties": {
    "name": "Jai Bharat Nagar",
    "category": "chronic_spot",
    "category_label": "Chronic flooding spot (BMC DM register)",
    "bmc_type": "Chronic Flooding Spot",
    "location": "Jai Bharat Nagar Road,Near Jay Deep Society,Khar,Mumbai,400052",
    "ward": "H/W",
    "feature_id": "FS10000000006",
    "aws_station_id": "WS15181900028"
   }
  },
  {
   "type": "Feature",
   "geometry": {
    "type": "Point",
    "coordinates": [
     72.837631,
     19.063184
    ]
   },
   "properties": {
    "name": "Railway Colony, S.V. Road",
    "category": "chronic_spot",
    "category_label": "Chronic flooding spot (BMC DM register)",
    "bmc_type": "Chronic Flooding Spot",
    "location": "Railway Colony Road,Near Railway Crossing,Khar,Mumbai,400050",
    "ward": "H/W",
    "feature_id": "FS10000000008",
    "aws_station_id": "WS15181900028"
   }
  },
  {
   "type": "Feature",
   "geometry": {
    "type": "Point",
    "coordinates": [
     72.814939,
     19.192447
    ]
   },
   "properties": {
    "name": "Marve Road, Near Rathodi Village, Cherry Studio, Opp Bulbul Estate, Suhasini Kuteer, Malad West",
    "category": "flooding_spot",
    "category_label": "Flooding Spot (BMC DM register)",
    "bmc_type": "Flooding Spot",
    "location": "Marve Road, Near Cherist Studio, Malad, Mumbai, 400095",
    "ward": "P/N",
    "feature_id": "FS12000000011",
    "aws_station_id": "WS14340400046"
   }
  },
  {
   "type": "Feature",
   "geometry": {
    "type": "Point",
    "coordinates": [
     72.883735,
     19.05358
    ]
   },
   "properties": {
    "name": "Suman Nagar",
    "category": "flooding_spot",
    "category_label": "Flooding Spot (BMC DM register)",
    "bmc_type": "Flooding Spot",
    "location": "Vn Purv Marg, Near Traffic Chowki, Chembur West, Mumbai, 400089",
    "ward": "M/W",
    "feature_id": "FS22000000019",
    "aws_station_id": "WS21198300041"
   }
  },
  {
   "type": "Feature",
   "geometry": {
    "type": "Point",
    "coordinates": [
     72.858886,
     19.188335
    ]
   },
   "properties": {
    "name": "Nadiadwala Chawl",
    "category": "chronic_spot",
    "category_label": "Chronic flooding spot (BMC DM register)",
    "bmc_type": "Chronic Flooding Spot",
    "location": "Jain Mandir Rd\r\nMalad, Ambewadi, Malad East",
    "ward": "P/N",
    "feature_id": "FS12000000021",
    "aws_station_id": "WS16330400044"
   }
  },
  {
   "type": "Feature",
   "geometry": {
    "type": "Point",
    "coordinates": [
     72.846306,
     19.072647
    ]
   },
   "properties": {
    "name": "Indira Nagar, Government Colony",
    "category": "flooding_spot",
    "category_label": "Flooding Spot (BMC DM register)",
    "bmc_type": "Flooding Spot",
    "location": "Prabhat Vayam Shala road, In Front of Vadana Yashvant Communication, Bandra East, Mumbai, 400055",
    "ward": "H/E",
    "feature_id": "FS21000000045",
    "aws_station_id": "WS21000010001"
   }
  },
  {
   "type": "Feature",
   "geometry": {
    "type": "Point",
    "coordinates": [
     72.846194,
     19.061938
    ]
   },
   "properties": {
    "name": "Kherwadi junction",
    "category": "chronic_spot",
    "category_label": "Chronic flooding spot (BMC DM register)",
    "bmc_type": "Chronic Flooding Spot",
    "location": "Western Express Hwy, Sadguru Colony, Bandra East",
    "ward": "H/E",
    "feature_id": "FS21000000050",
    "aws_station_id": "WS17181900026"
   }
  }
 ]
}